code,name,county,city,full_address,Longitude,Latitude,district,region,title_I,percent_EDS,S_P_grade,growth_status,EOG,grad_rate
291352,Southwest Elementary School,Davidson,Lexington,"434 Central Avenue, Lexington, NC 27292",-80.280445,35.8178793,Lexington City Schools,Piedmont-Triad,Y,57.3,D,Not Met,50.4,
650384,A H Snipes Academy of Arts/Des,New Hanover,Wilmington,"2150 Chestnut Street, Wilmington, NC 28405",-77.9204058,34.2393823,New Hanover County Schools,Southeast,Y,91.5,D,Met,33.2,
13C000,A.C.E. Academy,Cabarrus,Harrisburg,"7807 Caldwell Road, Harrisburg, NC 28075",-80.6730051,35.3082994,Charter Schools,Southwest,Y,57.1,D,Met,39.1,
630308,Aberdeen Elementary,Moore,Aberdeen,"503 Sandhills Blvd N, Aberdeen, NC 28315",-79.426078,35.139826,Moore County Schools,Sandhills,Y,81.6,D,Not Met,35.1,
630304,Aberdeen Primary,Moore,Aberdeen,"310 Keyser St, Aberdeen, NC 28315",-79.423373,35.124083,Moore County Schools,Sandhills,Y,74.9,D,,,
240308,Acme Delco Elementary,Columbus,Riegelwood,"16337 Old Lake Road, Riegelwood, NC 28456",-78.2544189,34.3475806,Columbus County Schools,Sandhills,Y,82.1,D,Not Met,48,
460308,Ahoskie Elementary,Hertford,Ahoskie,"200 N Talmage St, Ahoskie, NC 27910",-76.994518,36.2916745,Hertford County Schools,Northeast,Y,63.7,F,Not Met,34.3,
600301,Albemarle Road Middle,Mecklenburg,Charlotte,"6900 Democracy Dr, Charlotte, NC 28212",-80.729263,35.199266,Charlotte-Mecklenburg Schools,Southwest,Y,49.1,D,Met,43.1,
410310,Allen Jay Elementary,Guilford,High Point,"1311 East Springfield Road, High Point, NC 27263",-79.9554544,35.9322724,Guilford County Schools,Piedmont-Triad,Y,58,D,Met,45.1,
410316,Allen Middle,Guilford,Greensboro,"1108 Glendale Drive, Greensboro, NC 27406",-79.8234499,36.011131,Guilford County Schools,Piedmont-Triad,Y,59.5,D,Not Met,39.2,
600308,Allenbrook Elementary,Mecklenburg,Charlotte,"1430 Allenbrook Dr, Charlotte, NC 28208",-80.9151119,35.261705,Charlotte-Mecklenburg Schools,Southwest,Y,73.4,F,Not Met,30.4,
430304,Anderson Creek Primary,Harnett,Bunnlevel,"914 Anderson Creek Sch Rd, Bunnlevel, NC 28323",-78.9174683,35.2817479,Harnett County Schools,North Central,Y,57.1,D,,,
430308,Angier Elementary,Harnett,Angier,"130 E McIver St, Angier, NC 27501",-78.7361073,35.5028926,Harnett County Schools,North Central,Y,73.5,D,Exceeded,41.9,
260336,Anne Chesnutt Middle,Cumberland,Fayetteville,"2121 Skibo Road, Fayetteville, NC 28314",-78.9734273,35.0503665,Cumberland County Schools,Sandhills,N,63.1,D,Not Met,39.2,
40306,Anson High School,Anson,Wadesboro,"96 Anson High School Road, Wadesboro, NC 28170",-80.1037392,34.9768643,Anson County Schools,Southwest,N,50.7,D,Not Met,23.5,86.2
40309,Anson Middle,Anson,Wadesboro,"832 US Hwy 52 N, Wadesboro, NC 28170",-80.0882123,34.9896098,Anson County Schools,Southwest,N,55.2,D,Not Met,35.6,
34Z000,Appalachian Academy at Middle Fork,Forsyth,Walkertown,"3125 Williston Rd, Walkertown, NC 27051",-80.1683575,36.1412787,Lab Schools,Piedmont-Triad,Y,<5,D,Met,25.4,
53B000,Ascend Leadership Academy Lee County,Lee,Sanford,"283 Harvey Faulk Road, Sanford NC 27332",-79.1258193,35.4338052,Charter Schools,North Central,Y,17.4,D,Not Met,54.1,
340308,Ashley Academy,Forsyth,Winston-Salem,"1647 Ashley School Circle, Winston-Salem, NC 27105",-80.2217616,36.1176872,Forsyth County Schools,Piedmont-Triad,Y,81.5,F,Met,19.4,
600311,Ashley Park PreK-8 School,Mecklenburg,Charlotte,"2401 Belfast Dr, Charlotte, NC 28208",-80.891217,35.232769,Charlotte-Mecklenburg Schools,Southwest,Y,74.2,D,Met,31.1,
920320,Aversboro Elementary,Wake,Garner,"1605 Aversboro Rd, Garner, NC 27529",-78.6152841,35.6887639,Wake County Schools,North Central,Y,60.8,D,Not Met,43.7,
60701,Avery High Viking Academy,Avery,Newland,"401 Avery County High School Rd, Newland, NC 28657",-81.91897,36.0692387,Avery County Schools,Northwest,N,60,F,Met,10.5,
110410,Avery's Creek Elementary,Buncombe,Arden,"15 Park South Boulevard, Arden, NC 28704",-82.5792672,35.4774437,Buncombe County Schools,Western,Y,63.9,D,Met,48.5,
10346,B Everett Jordan Elem,Alamance,Graham,"5827 Church Road, Graham, NC 27253",-79.3267517,35.9397887,Alamance-Burlington Schools,Piedmont-Triad,Y,59.6,D,Not Met,41.6,
310304,B F Grady Elementary,Duplin,Albertson,"2627 N NC 11 & 903, Albertson, NC 28508",-77.8266212,35.0568712,Duplin County Schools,Southeast,Y,69.5,D,Met,43.2,
980308,B O Barnes Elementary,Wilson,Wilson,"1913 Martin L King Parkway, Wilson, NC 27893",-77.8865965,35.712878,Wilson County Schools,North Central,Y,78.8,F,Not Met,22,
920326,Baileywick Road Elementary,Wake,Raleigh,"9425 Baileywick Road, Raleigh, NC 27615",-78.664731,35.909168,Wake County Schools,North Central,Y,55.7,D,Not Met,50.8,
920329,Barwell Road Elementary,Wake,Raleigh,"3925 Barwell Road, Raleigh, NC 27610",-78.5514452,35.731847,Wake County Schools,North Central,Y,76.3,F,Not Met,33.1,
640306,Baskerville Elementary,Nash,Rocky Mount,"1100 Stokes Avenue, Rocky Mount, NC 27801",-77.7713841,35.9505403,Nash-Rocky Mount Schools,North Central,Y,85.9,F,Not Met,19,
550312,Battleground Elementary,Lincoln,Lincolnton,"201 Jeb Seagle Dr, Lincolnton, NC 28092",-81.2624659,35.4801701,Lincoln County Schools,Southwest,Y,65.6,D,Met,44.3,
920332,Beaverdam Elementary,Wake,Raleigh,"3591 Tarheel Club Rd, Raleigh, NC 27604",-78.5281927,35.821173,Wake County Schools,North Central,Y,64.1,D,Not Met,43.8,
740310,Belvoir Elementary,Pitt,Greenville,"2568 NC 33 West, Greenville, NC 27834",-77.41742,35.668157,Pitt County Schools,Northeast,Y,75.2,D,Met,42.2,
410544,Ben L. Smith High School,Guilford,Greensboro,"2407 South Holden Road, Greensboro, NC 27407",-79.847112,36.034726,Guilford County Schools,Piedmont-Triad,Y,58.6,D,Met,27.7,77.3
260414,Benjamin J Martin Elementary,Cumberland,Fayetteville,"430 N Reilly Road, Fayetteville, NC 28303",-79.0094964,35.0929339,Cumberland County Schools,Sandhills,Y,68.8,D,Not Met,47.7,
510308,Benson Elementary,Johnston,Benson,"2040 Hwy 50 N, Benson, NC 27504",-78.5550559,35.400258,Johnston County Schools,North Central,Y,67.7,D,Not Met,37.1,
510310,Benson Middle,Johnston,Benson,"1600 N Wall Street, Benson, NC 27504",-78.532152,35.389153,Johnston County Schools,North Central,Y,63.2,D,Met,39.5,
640308,Benvenue Elementary,Nash,Rocky Mount,"2700 Nicodemus Mile Road, Rocky Mount, NC 27804",-77.8378954,35.9750391,Nash-Rocky Mount Schools,North Central,Y,51.4,D,Met,37.5,
80312,Bertie High,Bertie,Windsor,"716 US Hwy 13 North, Windsor, NC 27983",-78.0609004,35.3202529,Bertie County Schools,Northeast,Y,56.7,D,Not Met,26.2,73.3
80314,Bertie Middle,Bertie,Windsor,"652 US Hwy 13 North, Windsor, NC 27983",-76.9645761,36.0476907,Bertie County Schools,Northeast,Y,58.2,D,Not Met,45,
360332,Bessemer City Central Elem,Gaston,Bessemer City,"1400 Puett's Chapel Road, Bessemer City, NC 28016",-81.2753965,35.3025408,Gaston County Schools,Southwest,Y,60.2,D,Not Met,33.1,
360336,Bessemer City High,Gaston,Bessemer City,"119 Yellow Jacket Lane, Bessemer City, NC 28016",-81.2807176,35.2979309,Gaston County Schools,Southwest,N,63.6,D,Not Met,26.8,77.6
360338,Bessemer City Primary,Gaston,Bessemer City,"1320 North 12th Street, Bessemer City, NC 28016",-81.275058,35.300151,Gaston County Schools,Southwest,Y,61,D,,,
410328,Bessemer Elementary,Guilford,Greensboro,"918 Huffine Mill Road, Greensboro, NC 27405",-79.736291,36.0895579,Guilford County Schools,Piedmont-Triad,Y,81.3,D,Met,34.2,
320304,Bethesda Elementary,Durham,Durham,"2009 S Miami Boulevard, Durham, NC 27703",-78.8378281,35.9401449,Durham Public Schools,North Central,Y,56.3,D,Met,39.8,
90318,Bladen Lakes Primary,Bladen,Elizabethtown,"9554 Johnsontown Road, Elizabethtown, NC 28337",-78.595286,34.711064,Bladen County Schools,Sandhills,Y,83.5,D,Met,47.3,
670308,Blue Creek Elementary,Onslow,Jacksonville,"1260 Burgaw Hwy, Jacksonville, NC 28540",-77.4779123,34.7533537,Onslow County Schools,Southeast,Y,62.1,D,Met,44.4,
500302,Blue Ridge Early College,Jackson,Cashiers,"95 Bobcat Dr, Cashiers, NC 28717",-83.1202056,35.1284311,Jackson County Schools,Western,N,25.8,D,Not Met,51.4,
500316,Blue Ridge School,Jackson,Cashiers,"95 Bobcat Drive, Cashiers, NC 28717",-83.1202056,35.1284311,Jackson County Schools,Western,Y,42,D,Not Met,49,
410331,Bluford Elementary,Guilford,Greensboro,"1901 Tuscaloosa Street, Greensboro, NC 27401",-79.7646078,36.0577655,Guilford County Schools,Piedmont-Triad,Y,74.3,D,Met,30.8,
340314,Bolton Elementary,Forsyth,Winston Salem,"1250 Bolton Street, Winston Salem, NC 27103",-80.2918719,36.0741102,Forsyth County Schools,Piedmont-Triad,Y,63.1,D,Met,36.3,
430316,Boone Trail Elementary,Harnett,Lillington,"1425 Adcock Road, Lillington, NC 27546",-78.9506556,35.4000394,Harnett County Schools,North Central,Y,69.3,D,Not Met,46.7,
97D000,Bridges Academy,Wilkes,State Road,"2587 Pleasant Ridge Road, State Road, NC 28676",-80.884614,36.314907,Charter Schools,Northwest,Y,41.6,D,Met,36.3,
410334,Brightwood Elementary,Guilford,Greensboro,"2001 Brightwood School Road, Greensboro, NC 27405",-79.7515391,36.147817,Guilford County Schools,Piedmont-Triad,Y,70.9,D,Met,40.4,
10310,Broadview Middle,Alamance,Burlington,"2229 Broadview Drive, Burlington, NC 27217",-79.3969707,36.0874369,Alamance-Burlington Schools,Piedmont-Triad,Y,55.3,F,Not Met,28.1,
960312,"Brogden Middle, Dudley",Wayne,Dudley,"3761 US 117 S Alt, Dudley, NC 28333",-78.036535,35.293618,Wayne County Public Schools,Southeast,Y,84.4,F,Not Met,29.7,
320306,"Brogden Middle, Durham",Durham,Durham,"1001 Leon Street, Durham, NC 27704",-78.908729,36.0247847,Durham Public Schools,North Central,Y,74.2,D,Exceeded,40.2,
960314,Brogden Primary,Wayne,Dudley,"2253 Old Mt Olive Hwy, Dudley, NC 28333",-78.035295,35.273063,Wayne County Public Schools,Southeast,Y,85.4,D,Exceeded,37,
360340,Brookside Elementary,Gaston,Gastonia,"1925 Auten Rd., Gastonia, NC 28054",-81.1512179,35.2936803,Gaston County Schools,Southwest,Y,47.4,D,Not Met,43.2,
862308,Bruce H Tharrington Primary,Surry,Mount Airy,"315 Culbert Street, Mount Airy, NC 27030",-80.6019012,36.490373,Mount Airy City Schools,Piedmont-Triad,Y,62.1,D,,,
600489,Bruns Academy,Mecklenburg,Charlotte,"501 S. Bruns Ave, Charlotte, NC 28208",-80.8648481,35.2391236,Charlotte-Mecklenburg Schools,Southwest,Y,75.3,F,Met,20.2,
920352,Bugg Elementary,Wake,Raleigh,"825 Cooper Rd, Raleigh, NC 27610",-78.586134,35.7658999,Wake County Schools,North Central,Y,81.2,F,Not Met,21.6,
390311,Butner-Stem Elementary,Granville,Butner,"201 East D St, Butner, NC 27509",-78.7581486,36.1371437,Granville County Schools,North Central,Y,72,D,Not Met,43.3,
390309,Butner-Stem Middle,Granville,Butner,"501 East D St, Butner, NC 27509",-78.7539691,36.140779,Granville County Schools,North Central,Y,69.6,D,Not Met,44.1,
320374,C C Spaulding Elementary,Durham,Durham,"1531 S Roxboro Road, Durham, NC 27707",-78.905587,35.977736,Durham Public Schools,North Central,Y,74.6,F,Met,25.8,
740324,C M Eppes Middle,Pitt,Greenville,"1100 South Elm Street, Greenville, NC 27858",-77.361208,35.599343,Pitt County Schools,Northeast,Y,76.6,D,Not Met,43.4,
390312,C. G. Credle Elementary,Granville,Oxford,"223 College St, Oxford, NC 27565",-78.592472,36.31453,Granville County Schools,North Central,Y,78.6,D,Met,45.8,
13B000,Cabarrus Charter Academy,Cabarrus,Concord,"355 Poplar Crossing Dr NW, Concord, NC 28027",-80.668976,35.4087319,Charter Schools,Southwest,Y,36.1,D,Not Met,47,
32C000,Carter Community Charter,Durham,Durham,"1955 West Cornwallis Road, Durham, NC 27705",-78.955472,35.9812192,Charter Schools,North Central,Y,69.5,D,Met,33.1,
34D000,Carter G Woodson School,Forsyth,Winston-Salem,"437 Goldfloss Street, Winston-Salem, NC 27127",-80.2304324,36.0675488,Charter Schools,Piedmont-Triad,Y,67.3,F,Not Met,26.3,83.3
960316,"Carver Elementary, Mount Olive",Wayne,Mount Olive,"400 Old Seven Springs Rd, Mount Olive, NC 28365",-78.0528371,35.2005956,Wayne County Public Schools,Southeast,Y,79.3,D,Met,42.5,
960318,Carver Heights Elementary,Wayne,Goldsboro,"411 Bunche Drive, Goldsboro, NC 27530",-77.9962183,35.3669685,Wayne County Public Schools,Southeast,Y,91.4,D,Exceeded,27.7,
340330,Carver High,Forsyth,Winston Salem,"3545 Carver School Road, Winston Salem, NC 27105",-80.2071071,36.1342371,Forsyth County Schools,Piedmont-Triad,Y,69.2,D,Exceeded,24.3,67
830304,Carver Middle,Scotland,Laurel Hill,"18601 Fieldcrest Road, Laurel Hill, NC 28351",-79.5202088,34.8207073,Scotland County Schools,Sandhills,Y,75.2,D,Not Met,47.3,
50Z000,Catamount School,Jackson,Sylva,"100 Smoky Mountain Dr, Sylva, NC 28779",-83.199302,35.3535224,Lab Schools,Western,Y,45.5,D,Not Met,46.4,
410349,Ceasar Cone Elementary,Guilford,Greensboro,"2501 North Church Street, Greensboro, NC 27405",-79.7813281,36.1080744,Guilford County Schools,Piedmont-Triad,Y,82,F,Not Met,26,
920370,Centennial Campus Middle,Wake,Raleigh,"1900 Main Campus Drive, Raleigh, NC 27606",-78.6876185,35.7585717,Wake County Schools,North Central,N,53.5,D,Not Met,46.5,
840310,"Central Elementary, Albemarle",Stanly,Albemarle,"206 N 3rd Street, Albemarle, NC 28001",-80.195563,35.3541049,Stanly County Schools,Southwest,Y,56.8,D,Met,39.2,
680312,"Central Elementary, Hillsborough",Orange,Hillsborough,"154 Hayes St, Hillsborough, NC 27278",-79.114831,36.0800137,Orange County Schools,North Central,Y,70.1,D,Exceeded,41.1,
660306,"Central Elementary, Jackson",Northampton,Jackson,"9742 NC Hwy 305, Jackson, NC 27845",-77.434285,36.418549,Northampton County Schools,Northeast,Y,75.8,D,Exceeded,46.3,
240332,Chadbourn Elementary,Columbus,Chadbourn,"409 E Third Avenue, Chadbourn, NC 28431",-78.8215184,34.3258017,Columbus County Schools,Sandhills,Y,91.3,D,Not Met,47.7,
60P000,Charlotte Choice Charter,Mecklenburg,Charlotte,"3118 Milton Road, Suite A, Charlotte, NC 28215",-80.7366961,35.2348691,Charter Schools,Southwest,Y,79.1,F,Not Met,27.9,
600303,Charlotte East Language Academy,Mecklenburg,Charlotte,"6108 Wilora Lake Rd, Charlotte, NC 28212",-80.746881,35.208697,Charlotte-Mecklenburg Schools,Southwest,Y,57,D,Not Met,41.2,
60V000,Charlotte Learning Academy,Mecklenburg,Charlotte,"800 Briar Creek Rd., DD400, Charlotte, NC 28205",-80.7976804,35.2072338,Charter Schools,Southwest,Y,52.5,F,Not Met,17.3,88.2
190312,Chatham Middle,Chatham,Siler City,"2025 South 2nd Avenue Ext, Siler City, NC 27344",-79.4481623,35.7088641,Chatham County Schools,North Central,Y,87.2,D,Not Met,43.5,
54A000,Children's Village Academy,Lenoir,Kinston,"701 North Adkin Street, Kinston, NC 28501",-77.5671434,35.2667229,Charter Schools,Southeast,Y,91.3,F,Not Met,27.8,
800316,China Grove Elementary,Rowan,China Grove,"514 South Franklin St, China Grove, NC 28023",-80.5857641,35.5673252,Rowan-Salisbury Schools,Southwest,Y,35.7,D,Met,42.9,
640342,CITI High School,Nash,Rocky Mount,"846 Hammond Street, Rocky Mount, NC 27804",-77.8073968,35.9410455,Nash-Rocky Mount Schools,North Central,Y,83.3,F,Not Met,<5,
410514,Clara J Peck Elementary,Guilford,Greensboro,"1601 West Florida Street, Greensboro, NC 27403",-79.8176267,36.0512123,Guilford County Schools,Piedmont-Triad,Y,78,D,Met,36,
510412,Clayton Middle,Johnston,Clayton,"490 Guy Rd, Clayton, NC 27520",-78.4851543,35.6449995,Johnston County Schools,North Central,N,44.8,D,Met,44.3,
490319,Cloverleaf Elementary,Iredell,Statesville,"300 James Farm Rd, Statesville, NC 28625",-80.862627,35.8233,Iredell-Statesville Schools,Southwest,Y,64.2,D,Met,37.1,
670312,Clyde Erwin Elementary,Onslow,Jacksonville,"323 New River Dr, Jacksonville, NC 28540",-77.412415,34.7559065,Onslow County Schools,Southeast,Y,73.3,D,Met,36.6,
600341,Cochrane Collegiate Academy,Mecklenburg,Charlotte,"6200 Starhaven Dr, Charlotte, NC 28215",-80.7503253,35.2461762,Charlotte-Mecklenburg Schools,Southwest,Y,50.5,D,Not Met,32.1,83.3
330312,Coker-Wimberly Elementary,Edgecombe,Battleboro,"1619 NC 97 West, Battleboro, NC 27809",-77.6042147,35.9769077,Edgecombe County Public School,North Central,Y,61.2,D,Met,32,
41H000,College Prep and Leadership Academy,Guilford,Jamestown,"4201 Furniture Avenue, Jamestown, NC 27282",-79.922666,35.968148,Charter Schools,Piedmont-Triad,Y,62,D,Not Met,46.4,
890306,Columbia Middle,Tyrrell,Columbia,"920 Main Street, Columbia, NC 27925",-76.246185,35.919445,Tyrrell County Schools,Northeast,Y,43.5,D,Met,37,
130313,Concord Middle,Cabarrus,Concord,"1500 Gold Rush Drive, Concord, NC 28025",-80.5524389,35.4220649,Cabarrus County Schools,Southwest,N,50.5,D,Met,36.6,
660308,Conway Middle,Northampton,Conway,"400 East Main Street, Conway, NC 27820",-77.2238997,36.4382772,Northampton County Schools,Northeast,Y,64.5,F,Not Met,23.9,
340351,Cook Literacy Model School,Forsyth,Winston-Salem,"920 11th Street NW, Winston-Salem, NC 27105",-80.2568315,36.1078495,Forsyth County Schools,Piedmont-Triad,Y,87.8,D,Exceeded,28.5,
510330,Cooper Academy,Johnston,Clayton,"849 North Mial St, Clayton, NC 27520",-78.451331,35.656123,Johnston County Schools,North Central,Y,59.2,D,Met,31,
510332,Corinth-Holders Elementary,Johnston,Zebulon,"3976 NC 231, Zebulon, NC 27597",-78.297015,35.7331302,Johnston County Schools,North Central,Y,59.1,D,Not Met,44.3,
800328,Corriher Lipe Middle,Rowan,Landis,"214 West Rice St, Landis, NC 28088",-80.614895,35.5464994,Rowan-Salisbury Schools,Southwest,N,60.6,D,Not Met,43.7,
830312,Covington Street Elementary,Scotland,Laurinburg,"615 W Covington St, Laurinburg, NC 28352",-79.471804,34.772452,Scotland County Schools,Sandhills,Y,82.6,F,Not Met,27.7,
390316,Creedmoor Elementary,Granville,Creedmoor,"305 E Wilton Ave, Creedmoor, NC 27522",-78.6783867,36.1233173,Granville County Schools,North Central,Y,76.2,D,Met,41.5,
940306,Creswell Elementary,Washington,Creswell,"200 South Seventh St, Creswell, NC 27928",-76.3970472,35.870622,Washington County Schools,Northeast,Y,53.5,D,Met,47.3,
600418,Croft Community Elementary,Mecklenburg,Charlotte,"4911 Hucks Rd, Charlotte, NC 28269",-80.805389,35.346554,Charlotte-Mecklenburg Schools,Southwest,N,47.7,D,Not Met,54.2,
410376,Cyrus P Frazier Elementary,Guilford,Greensboro,"4215 Galway Drive, Greensboro, NC 27406",-79.8251234,36.0121973,Guilford County Schools,Piedmont-Triad,Y,69.3,D,Met,44.4,
640326,D S Johnson Elementary,Nash,Rocky Mount,"600 North Fairview Road, Rocky Mount, NC 27801",-77.7762744,35.9372313,Nash-Rocky Mount Schools,North Central,Y,84.8,F,Met,21.1,
65Z000,D.C. Virgo Preparatory Academy,New Hannover,Wilmington,"813 Nixon St, Wilmington, NC 28401",-77.940458,34.250692,Lab Schools,Southeast,Y,74.9,F,Not Met,26.4,
600362,David Cox Road Elementary,Mecklenburg,Charlotte,"4215 David Cox Rd, Charlotte, NC 28269",-80.800904,35.336565,Charlotte-Mecklenburg Schools,Southwest,Y,44,D,Not Met,40.2,
29A000,Davidson Charter Academy CFA,Davidson,Lexington,"500 Biesecker Rd, Lexington, NC 27295",-80.2690538,35.8457638,Charter Schools,Piedmont-Triad,N,22.7,D,Not Met,42.3,
780320,Deep Branch Elementary,Robeson,Lumberton,"4045 Deep Branch Road, Lumberton, NC 28360",-79.146015,34.630379,Robeson County Schools,Sandhills,Y,90.4,D,Met,40.3,
600365,Devonshire Elementary,Mecklenburg,Charlotte,"6500 Barrington Dr, Charlotte, NC 28215",-80.745853,35.245259,Charlotte-Mecklenburg Schools,Southwest,Y,58.2,D,Not Met,42.4,
340430,Diggs-Latham Elementary,Forsyth,Winston Salem,"986 Hutton Street, Winston Salem, NC 27101",-80.256586,36.07895,Forsyth County Schools,Piedmont-Triad,Y,66.7,D,Not Met,35.4,
96C000,Dillard Academy,Wayne,Goldsboro,"504 West Elm Street, Goldsboro, NC 27530",-78.0053124,35.3790074,Charter Schools,Southeast,Y,89.1,D,Met,34,
920394,Dillard Drive Middle,Wake,Raleigh,"5200 Dillard Drive, Raleigh, NC 27606",-78.7237605,35.7522551,Wake County Schools,North Central,N,48.4,D,Not Met,54.2,
960326,Dillard Middle,Wayne,Goldsboro,"1101 S Devereaux St, Goldsboro, NC 27530",-77.9947573,35.3685907,Wayne County Public Schools,Southeast,Y,94.8,F,Met,18.1,
800359,Dole Elementary,Rowan,Salisbury,"465 Choate Rd, Salisbury, NC 28146",-80.4254179,35.6694699,Rowan-Salisbury Schools,Southwest,Y,61.6,D,Met,28.6,
410398,Doris Henderson Newcomers Sch,Guilford,Greensboro,"411 Friendway Road, Greensboro, NC 27410",-79.9042984,36.0819119,Guilford County Schools,Piedmont-Triad,Y,40.8,F,,<5,
260322,Douglas Byrd High,Cumberland,Fayetteville,"1624 Ireland Drive, Fayetteville, NC 28304",-78.950225,35.032099,Cumberland County Schools,Sandhills,Y,71.4,D,Not Met,29.1,73.7
260321,Douglas Byrd Middle,Cumberland,Fayetteville,"1616 Ireland Drive, Fayetteville, NC 28304",-78.948283,35.034917,Cumberland County Schools,Sandhills,Y,75.6,D,Not Met,34.2,
920396,Douglas Elementary,Wake,Raleigh,"600 Ortega Rd, Raleigh, NC 27609",-78.62925,35.839934,Wake County Schools,North Central,N,32.9,D,Not Met,53.5,
65C000,Douglass Academy,New Hanover,Wilmington,"507 N 6th Street, Wilmington, NC 28401",-77.9431225,34.2421977,Charter Schools,Southeast,Y,85.5,D,Met,48,
600374,Druid Hills Academy,Mecklenburg,Charlotte,"2801 Lucena Ave, Charlotte, NC 28206",-80.8242841,35.2572334,Charlotte-Mecklenburg Schools,Southwest,Y,79.5,F,Not Met,25.8,
90324,Dublin Primary,Bladen,Dublin,"7048 Albert Street, Dublin, NC 28332",-78.7201518,34.6548787,Bladen County Schools,Sandhills,Y,85.2,D,Met,41.1,
430332,Dunn Middle,Harnett,Dunn,"1301 Meadowlark Road, Dunn, NC 28334",-78.6116773,35.3352176,Harnett County Schools,North Central,N,67.9,D,Met,43.8,
580312,E J Hayes Elementary,Martin,Williamston,"201 Andrews St, Williamston, NC 27892",-77.0624277,35.84707,Martin County Schools,Northeast,Y,58.2,D,Met,44.5,
910360,E M Rollins Elementary,Vance,Henderson,"1600 S Garnett St, Henderson, NC 27536",-78.4156681,36.3200192,Vance County Schools,North Central,Y,76.5,D,Not Met,35.4,
910346,E O Young Jr Elementary,Vance,Henderson,"6655 Broad Street, Henderson, NC 27537",-78.3296196,36.396691,Vance County Schools,North Central,Y,65.3,D,Met,37.6,
90328,East Arcadia Elementary,Bladen,Riegelwood,"21451 NC Hwy 87 East, Riegelwood, NC 28456",-78.342192,34.4201,Bladen County Schools,Sandhills,Y,81.8,D,Met,37,
74Z000,East Carolina Laboratory School,Pitt,Greenville,"811 Howell St, Greenville, NC 27834",-77.385629,35.598201,Lab Schools,Northeast,Y,52.6,F,Met,6.8,
900306,"East Elementary, Monroe",Union,Monroe,"515 Elizabeth Ave, Monroe, NC 28112",-80.5318963,34.9778673,Union County Public Schools,Southwest,Y,62.8,D,Exceeded,37.3,
580316,East End Elementary,Martin,Robersonville,"1121 Third Street Extension, Robersonville, NC 27871",-77.243127,35.823213,Martin County Schools,Northeast,Y,64.8,F,Not Met,33.1,
340366,East Forsyth Middle School,Forsyth,Kernersville,"810 Bagley Drive, Kernersville, NC 27284",-80.1289634,36.133569,Forsyth County Schools,Piedmont-Triad,Y,51.8,D,Not Met,33.8,
560316,East Franklin Elementary,Macon,Franklin,"100 Watauga St, Franklin, NC 28734",-83.37192,35.189442,Macon County Schools,Western,Y,42.4,D,Not Met,44.7,
920403,East Garner Elementary,Wake,Garner,"5545 Jones Sausage Road, Garner, NC 27529",-78.586755,35.7072719,Wake County Schools,North Central,Y,76.5,D,Met,45.7,
470332,East Hoke Middle,Hoke,Raeford,"4702 Fayetteville Rd, Raeford, NC 28376",-79.1709903,35.0062456,Hoke County Schools,Sandhills,Y,69.8,D,Not Met,46,
490327,East Iredell Middle,Iredell,Statesville,"590 Chestnut Grove Road, Statesville, NC 28625",-80.7901044,35.8368572,Iredell-Statesville Schools,Southwest,N,73.3,D,Exceeded,39,
530314,East Lee Middle,Lee,Sanford,"1337 Broadway Rd, Sanford, NC 27330",-79.1138168,35.4610356,Lee County Schools,North Central,N,66.6,D,Not Met,49.1,
920408,East Millbrook Middle,Wake,Raleigh,"3801 Spring Forest Rd, Raleigh, NC 27616",-78.5762465,35.8561484,Wake County Schools,North Central,Y,68.9,D,Met,43.4,
900308,East Union Middle,Union,Marshville,"6010 W Marshville Blvd, Marshville, NC 28103",-80.3833884,34.985273,Union County Public Schools,Southwest,N,70.5,D,Not Met,51.2,
920410,East Wake Middle,Wake,Raleigh,"2700 Old Milburnie Rd, Raleigh, NC 27604",-78.5021162,35.825962,Wake County Schools,North Central,Y,71.4,D,Met,37.5,
410460,Eastern Guilford Middle,Guilford,Gibsonville,"435 Peeden Drive, Gibsonville, NC 27249",-79.6149641,36.0987373,Guilford County Schools,Piedmont-Triad,Y,45.7,D,Not Met,44,
960329,Eastern Wayne Elementary,Wayne,Goldsboro,"1271 New Hope Road, Goldsboro, NC 27534",-77.8768005,35.3734403,Wayne County Public Schools,Southeast,Y,73.1,D,Met,41.6,
960331,Eastern Wayne Middle,Wayne,Goldsboro,"3518 Central Heights Rd, Goldsboro, NC 27534",-77.9102672,35.383607,Wayne County Public Schools,Southeast,Y,65.3,D,Met,41.2,
10326,Eastlawn Elementary,Alamance,Burlington,"502 N Graham Hopedale Road, Burlington, NC 27217",-79.4066516,36.1019099,Alamance-Burlington Schools,Piedmont-Triad,Y,60.5,D,Met,36,
340368,Easton Elementary School,Forsyth,Winston Salem,"734 E Clemmonsville Road, Winston Salem, NC 27107",-80.2217137,36.0582669,Forsyth County Schools,Piedmont-Triad,Y,70.4,F,Met,23.1,
320310,Eastway Elementary,Durham,Durham,"610 North Alston Avenue, Durham, NC 27701",-78.885157,35.990755,Durham Public Schools,North Central,Y,69.5,D,Exceeded,26.8,
600381,Eastway Middle,Mecklenburg,Charlotte,"1501 Norland Rd, Charlotte, NC 28205",-80.7779054,35.2096706,Charlotte-Mecklenburg Schools,Southwest,Y,52.6,D,Met,35.7,
910316,Eaton-Johnson Middle,Vance,Henderson,"500 N Beckford Drive, Henderson, NC 27536",-78.403126,36.3373595,Vance County Schools,North Central,Y,71.7,F,Not Met,31.5,
260370,Ed V Baldwin Elementary,Cumberland,Hope Mills,"4441 Legion Road, Hope Mills, NC 28348",-78.9336749,34.978952,Cumberland County Schools,Sandhills,Y,56.9,D,Met,44.7,
360392,Edward D Sadler Jr Elementary School,Gaston,Gastonia,"3950 West Franklin Boulevard, Gastonia, NC 28052",-81.2595319,35.258803,Gaston County Schools,Southwest,Y,64.3,D,Met,42.2,
410307,"Edwin A Alderman Elementary, Greensboro",Guilford,Greensboro,"4211 Chateau Drive, Greensboro, NC 27407",-79.8679836,36.0402338,Guilford County Schools,Piedmont-Triad,Y,55,D,Not Met,50.8,
630320,Elise Middle,Moore,Robbins,"180 W Elm St, Robbins, NC 27325",-79.589349,35.436008,Moore County Schools,Sandhills,Y,81,D,Met,41.5,
700308,Elizabeth City Middle,Pasquotank,Elizabeth City,"1066 Northside Road, Elizabeth City, NC 27909",-76.2710426,36.3679416,Pasquotank County Schools,Northeast,Y,67,D,Not Met,41.2,
90332,Elizabethtown Middle,Bladen,Elizabethtown,"1496 Hwy 701 South, Elizabethtown, NC 28337",-78.6151174,34.6135997,Bladen County Schools,Sandhills,Y,75.5,D,Not Met,42,
420324,Enfield Middle S.T.E.A.M. Academy,Halifax,Enfield,"13723 Hwy 481, Enfield, NC 27823",-77.6973623,36.1785217,Halifax County Schools,Northeast,Y,72,D,Met,32.8,
640328,Englewood Elementary,Nash,Rocky Mount,"101 South Englewood Drive, Rocky Mount, NC 27804",-77.840659,35.9619892,Nash-Rocky Mount Schools,North Central,Y,53.4,D,Not Met,43.4,
320315,Eno Valley Elementary,Durham,Durham,"117 Milton Road, Durham, NC 27712",-78.912153,36.0851774,Durham Public Schools,North Central,Y,65.4,D,Exceeded,37.1,
430336,Erwin Elementary,Harnett,Erwin,"301 S 10th St, Erwin, NC 28339",-78.6699864,35.3254214,Harnett County Schools,North Central,Y,58.4,D,Met,46.3,
110342,"Erwin Middle, Asheville",Buncombe,Asheville,"20 Erwin Hills Road, Asheville, NC 28806",-82.6228321,35.6194901,Buncombe County Schools,Western,N,68.4,D,Not Met,45.8,
800314,"Erwin Middle, Salisbury",Rowan,Salisbury,"170 St Luke's Church Rd, Salisbury, NC 28146",-80.423273,35.595013,Rowan-Salisbury Schools,Southwest,N,51.6,D,Not Met,41.7,
80B000,Essie Mae Kiser Foxx Charter,Rowan,Spencer,"720 N. Long St., East Spencer, NC 28144",-80.4238428,35.6886107,Charter Schools,Southwest,Y,60,F,Met,9.5,
420328,Everetts Elementary S.T.E.M. Academy,Halifax,Roanoke Rapids,"4391 Highway 158, Roanoke Rapids, NC 27870",-77.7446678,36.4449469,Halifax County Schools,Northeast,Y,71.2,F,Met,29.5,
240344,Evergreen Elementary,Columbus,Evergreen,"7211 Old 74 Hwy, Evergreen, NC 28438",-80.4392229,34.9810153,Columbus County Schools,Sandhills,Y,85.8,D,Met,43.9,
290328,Fair Grove Elementary,Davidson,Thomasville,"217 Cedar Lodge Road, Thomasville, NC 27360",-80.078673,35.8476484,Davidson County Schools,Piedmont-Triad,Y,48.3,D,Not Met,50.2,
780324,Fairgrove Middle,Robeson,Fairmont,"1953 Fairgrove Sch Road, Fairmont, NC 28340",-79.1741651,34.493302,Robeson County Schools,Sandhills,Y,83.5,D,Not Met,33.9,
780326,Fairmont Middle,Robeson,Fairmont,"402 Iona St, Fairmont, NC 28340",-79.1177842,34.4979328,Robeson County Schools,Sandhills,Y,89.3,F,Not Met,25,
410364,"Fairview Elementary, High Point",Guilford,High Point,"608 Fairview Street, High Point, NC 27260",-80.0074642,35.947588,Guilford County Schools,Piedmont-Triad,Y,77.2,D,Exceeded,31,
640302,"Fairview Elementary, Rocky Mount",Nash,Rocky Mount,"720 N Fairview Rd, Rocky Mount, NC 27801",-77.776051,35.9388429,Nash-Rocky Mount Schools,North Central,Y,83.8,F,,,
740334,Falkland Elementary,Pitt,Greenville,"503 NC 121, Greenville, NC 27834",-77.486723,35.669671,Pitt County Schools,Northeast,Y,78.7,D,Exceeded,35.1,
320344,Fayetteville Street Elementary,Durham,Durham,"2905 Fayetteville Street, Durham, NC 27707",-78.9055943,35.9643844,Durham Public Schools,North Central,Y,70.3,D,Met,26.6,
260361,Ferguson-Easley Elementary,Cumberland,Fayetteville,"1857 Seabrook Road, Fayetteville, NC 28301",-78.8992413,35.0849912,Cumberland County Schools,Sandhills,Y,90,D,Met,35.8,
410367,Ferndale Middle,Guilford,High Point,"701 Ferndale Boulevard, High Point, NC 27262",-80.019831,35.957043,Guilford County Schools,Piedmont-Triad,Y,59.7,D,Not Met,34.2,
340372,"Flat Rock Middle, Winston-Salem",Forsyth,Winston-Salem,"4648 Ebert Rd, Winston-Salem, NC 27284",-80.303403,36.0089929,Forsyth County Schools,Piedmont-Triad,Y,48,D,Met,42.7,
650328,Forest Hills Global Elementary,New Hanover,Wilmington,"602 Colonial Drive, Wilmington, NC 28403",-77.9140674,34.2304516,New Hanover County Schools,Southeast,Y,81.9,D,Met,36.9,
340376,"Forest Park Elementary, Winston-Salem",Forsyth,Winston Salem,"2019 Milford Street, Winston Salem, NC 27107",-80.2156541,36.0717656,Forsyth County Schools,Piedmont-Triad,Y,71,D,Met,29.4,
920413,Forestville Road Elementary,Wake,Knightdale,"100 Lawson Ridge Road, Knightdale, NC 27545",-78.4815098,35.8098565,Wake County Schools,North Central,Y,60.9,D,Not Met,40.8,
34F000,Forsyth Academy,Forsyth,Winston-Salem,"5426 Shattalon Drive, Winston-Salem, NC 27106",-80.2992777,36.1692078,Charter Schools,Piedmont-Triad,Y,81.9,D,Not Met,46.1,
760324,Franklinville Elementary,Randolph,Franklinville,"162 Pine St, Franklinville, NC 27248",-79.693213,35.747311,Randolph County Schools,Piedmont-Triad,Y,62.9,D,Not Met,50,
640329,G R Edwards Middle,Nash,Rocky Mount,"720 Edwards Street, Rocky Mount, NC 27803",-77.8223572,35.9351871,Nash-Rocky Mount Schools,North Central,Y,50.3,D,Met,40.6,
330304,G W Bulluck Elementary,Edgecombe,Rocky Mount,"3090 Bulluck School Road, Rocky Mount, NC 27801",-77.7196558,35.8826226,Edgecombe County Public School,North Central,Y,60.3,D,Met,41.4,
660320,Gaston Elementary,Northampton,Gaston,"400 Broughton Street, Gaston, NC 27832",-77.6512038,36.507984,Northampton County Schools,Northeast,Y,74.1,D,Met,43.6,
660325,Gaston Middle,Northampton,Gaston,"400 Broughton Street, Gaston, NC 27832",-77.6512038,36.507984,Northampton County Schools,Northeast,Y,69.3,F,Not Met,28.1,
41L000,Gate City Charter,Guilford,Greensboro,"123 Flemingfield Road, Greensboro, NC 27405",-79.710089,36.090168,Charter Schools,Piedmont-Triad,Y,67.2,D,Met,43.6,
430340,Gentry Primary,Harnett,Erwin,"114 Porter Drive, Erwin, NC 28339",-78.6702903,35.3374983,Harnett County Schools,North Central,Y,67.3,D,,,
410542,George C Simkins Jr Elementary,Guilford,Greensboro,"3511 East Lee St, Greensboro, NC 27406",-79.725501,36.044825,Guilford County Schools,Piedmont-Triad,Y,80.3,D,Not Met,46.6,
850312,Germanton Elementary,Stokes,Germanton,"6085 NC 8 Hwy South, Germanton, NC 27019",-80.2343319,36.2974712,Stokes County Schools,Piedmont-Triad,Y,53.2,D,Not Met,44.8,
340380,Gibson Elementary,Forsyth,Winston-Salem,"2020 Walker Road, Winston-Salem, NC 27106",-80.311353,36.186613,Forsyth County Schools,Piedmont-Triad,Y,63.5,D,Exceeded,43.5,
410385,Gillespie Park Elementary,Guilford,Greensboro,"1900 Martin Luther King Jr Drive, Greensboro, NC 27406",-79.7784483,36.0490322,Guilford County Schools,Piedmont-Triad,Y,77.2,D,Met,29,
65G000,Girls Leadership Academy of Wilmington,New Hanover,Wilmington,"606 South College Rd, Wilmington, NC 28403",-77.881522,34.2272489,Charter Schools,Southeast,Y,76.5,D,Not Met,40.3,
320320,Glenn Elementary,Durham,Durham,"2415 E Geer Street, Durham, NC 27704",-78.837487,36.029499,Durham Public Schools,North Central,Y,58.3,D,Not Met,32.5,
32M000,Global Scholars Academy,Durham,Durham,"311 Dowd St, Durham, NC 27701",-78.8929997,36.0008147,Charter Schools,North Central,Y,85.6,D,Not Met,49.2,
960335,Goldsboro High,Wayne,Goldsboro,"901 E Beech Street, Goldsboro, NC 27530",-77.9796645,35.3871146,Wayne County Public Schools,Southeast,N,90.6,D,Not Met,12.1,73.8
230342,Graham Elementary,Cleveland,Shelby,"1100 Blanton Street, Shelby, NC 28150",-81.558864,35.288762,Cleveland County Schools,Southwest,Y,78.3,F,Not Met,25,
10350,Graham Middle,Alamance,Graham,"311 E Pine Street, Graham, NC 27253",-79.4052184,36.0683622,Alamance-Burlington Schools,Piedmont-Triad,Y,85.1,F,Not Met,30.9,
06A000,Grandfather Academy,Avery,Banner Elk,"64 Grandfather Home Drive, Banner Elk, NC 28604",-81.8783765,36.1521736,Charter Schools,Northwest,Y,50,F,,<5,
960338,Grantham Middle,Wayne,Goldsboro,"3093 S US Hwy 13, Goldsboro, NC 27530",-78.1497816,35.2949716,Wayne County Public Schools,Southeast,Y,57.9,D,Not Met,45.2,
390321,Granville Academy,Granville,Oxford,"200 Taylor Street, Oxford, NC 27565",-78.5862227,36.3165557,Granville County Schools,North Central,N,38.6,D,Met,48.9,
920440,Green Elementary,Wake,Raleigh,"5307 Six Forks Road, Raleigh, NC 27609",-78.644422,35.854114,Wake County Schools,North Central,Y,60.2,D,Met,44.4,
400312,Greene County Middle,Greene,Snow Hill,"485 Middle School Road, Snow Hill, NC 28580",-77.669652,35.4911521,Greene County Schools,Southeast,Y,70.1,D,Not Met,38.5,
600398,Greenway Park Elementary,Mecklenburg,Charlotte,"8301 Monroe Rd, Charlotte, NC 28212",-80.745946,35.157393,Charlotte-Mecklenburg Schools,Southwest,Y,52.8,D,Not Met,49.2,
340384,Griffith Elementary,Forsyth,Winston Salem,"1385 W Clemmonsville Road, Winston Salem, NC 27127",-80.2645469,36.041069,Forsyth County Schools,Piedmont-Triad,Y,53.8,D,Exceeded,41.1,
740352,Grifton,Pitt,Grifton,"513 E McCrae St, Grifton, NC 28530",-77.4319478,35.3722711,Pitt County Schools,Northeast,Y,70.6,D,Met,43.6,
10351,Grove Park Elementary,Alamance,Burlington,"141 Trail One, Burlington, NC 27215",-79.4606761,36.0800356,Alamance-Burlington Schools,Piedmont-Triad,Y,60.9,D,Met,35.3,
132314,GW Carver Elementary,Cabarrus,Kannapolis,"525 East C St, Kannapolis, NC 28083",-80.6173412,35.4933308,Kannapolis City Schools,Southwest,Y,30.6,D,Met,42.7,
360492,H H Beam Elementary,Gaston,Gastonia,"200 Davis Park Road, Gastonia, NC 28052",-81.202048,35.2231519,Gaston County Schools,Southwest,Y,63.2,D,Not Met,33.4,
250332,H J MacDonald Middle,Craven,New Bern,"3127 Elizabeth Avenue, New Bern, NC 28562",-77.0977115,35.1173264,Craven County Schools,Southeast,N,67.1,D,Not Met,48.4,
93A000,Haliwa-Saponi Tribal School,Warren,Hollister,"130 Haliwa-Saponi Trail, Hollister, NC 27844",-77.981472,36.2520257,Charter Schools,North Central,Y,65,D,Met,31,
340390,Hall-Woodward Elementary,Forsyth,Winston Salem,"125 Nicholson Road, Winston Salem, NC 27107",-80.174661,36.0807519,Forsyth County Schools,Piedmont-Triad,Y,64.3,D,Met,34,
410403,Hampton Elem Univ Partnership,Guilford,Greensboro,"2301 Trade Street, Greensboro, NC 27401",-79.7544451,36.0668121,Guilford County Schools,Piedmont-Triad,Y,76.4,D,Exceeded,39.4,
600405,Harding University High,Mecklenburg,Charlotte,"2001 Alleghany St, Charlotte, NC 28208",-80.903264,35.2360718,Charlotte-Mecklenburg Schools,Southwest,Y,51.7,D,Not Met,28.4,55.6
430347,Harnett Central Middle,Harnett,Angier,"2529 Harnett Central Rd, Angier, NC 27501",-78.7861368,35.4627231,Harnett County Schools,North Central,N,59.3,D,Not Met,46.9,
10354,Harvey R Newlin Elementary,Alamance,Burlington,"316 Carden Street, Burlington, NC 27215",-79.4205411,36.0734088,Alamance-Burlington Schools,Piedmont-Triad,Y,69.1,D,Met,33.2,
250344,Havelock Middle,Craven,Havelock,"102 Middle School Lane, Havelock, NC 28532",-76.8982898,34.877554,Craven County Schools,Southeast,N,67.5,D,Not Met,46.7,
10357,Haw River Elementary,Alamance,Haw River,"701 E Main Street, Haw River, NC 27258",-79.358827,36.092396,Alamance-Burlington Schools,Piedmont-Triad,Y,55.9,D,Met,34.6,
32B000,Healthy Start Academy,Durham,Durham,"807 West Chapel Hill Street, Durham, NC 27701",-78.9137691,35.996406,Charter Schools,North Central,Y,69.9,D,Exceeded,43.7,
08A000,Heritage Collegiate Leadership Academy,Bertie,Windsor,"118-B County Farm Road, Windsor, NC 27983",-76.9466248,35.9776865,Charter Schools,Northeast,Y,72.4,F,Not Met,8.6,
460320,Hertford County High,Hertford,Ahoskie,"1500 W First St, Ahoskie, NC 27910",-76.997607,36.2962907,Hertford County Schools,Northeast,Y,55.2,D,Not Met,24.5,74.7
460318,Hertford County Middle,Hertford,Murfreesboro,"1850 Hwy 11N, Murfreesboro, NC 27855",-77.0887329,36.429706,Hertford County Schools,Northeast,Y,58.2,D,Exceeded,28.5,
600412,Hidden Valley Elementary,Mecklenburg,Charlotte,"5100 Snow White Ln, Charlotte, NC 28213",-80.784279,35.268156,Charlotte-Mecklenburg Schools,Southwest,Y,65.6,D,Met,44.1,
600414,Highland Renaissance Academy,Mecklenburg,Charlotte,"125 W Craighead Rd, Charlotte, NC 28206",-80.8036049,35.255572,Charlotte-Mecklenburg Schools,Southwest,Y,63.5,D,Not Met,39.6,
10358,"Hillcrest Elementary, Burlington",Alamance,Burlington,"1714 W Davis Street, Burlington, NC 27215",-79.4648653,36.1031392,Alamance-Burlington Schools,Piedmont-Triad,Y,57.6,D,Met,33.1,
920446,Hodge Road Elementary,Wake,Knightdale,"2128 Mingo Bluff Boulevard, Knightdale, NC 27545",-78.5221992,35.7763059,Wake County Schools,North Central,Y,71.9,D,Not Met,39.3,
92Q000,Hope Charter Leadership Academy,Wake,Raleigh,"1116 N Blount Street, Raleigh, NC 27604",-78.6351684,35.7952467,Charter Schools,North Central,Y,48.5,D,Met,31.7,
260368,Hope Mills Middle,Cumberland,Hope Mills,"4975 Cameron Road, Hope Mills, NC 28348",-78.9399003,34.9655563,Cumberland County Schools,Sandhills,N,55.1,D,Not Met,47.4,
600416,Hornets Nest Elementary,Mecklenburg,Charlotte,"6700 Beatties Ford Rd, Charlotte, NC 28216",-80.865288,35.324731,Charlotte-Mecklenburg Schools,Southwest,Y,49.9,D,Met,43,
670322,Hunters Creek Middle,Onslow,Jacksonville,"4040 Hunters Trail, Jacksonville, NC 28546",-77.3351971,34.7421965,Onslow County Schools,Southeast,Y,56.3,D,Not Met,47.2,
800360,Hurley Elementary,Rowan,Salisbury,"625 Hurley School Rd, Salisbury, NC 28147",-80.55868,35.6995689,Rowan-Salisbury Schools,Southwest,Y,53.5,F,Met,25.1,
830320,I E Johnson Elementary,Scotland,Laurinburg,"815 McGirts Bridge Road, Laurinburg, NC 28352",-79.445688,34.7821424,Scotland County Schools,Sandhills,Y,93.2,D,Met,37.8,
340400,Ibraham Elementary,Forsyth,Winston Salem,"5036 Old Walkertown, Winston Salem, NC 27105",-80.2008123,36.1593968,Forsyth County Schools,Piedmont-Triad,Y,69.2,F,Not Met,23.2,
74B000,Ignite Innovation Academy - Pitt,Pitt,Greenville,"901 Staton Rd, Suite 204, Greenville, NC 27834",-77.3517483,35.652919,Charter Schools,Northeast,Y,47.8,F,Not Met,18.6,
60Q000,Invest Collegiate Transform,Mecklenburg,Charlotte,"2045 Suttle Ave, Charlotte, NC 28208",-80.8710736,35.2254646,Charter Schools,Southwest,Y,49.6,D,Met,35.8,
49G000,Iredell Charter Academy,Iredell,Troutman,"251 Home Improvement Street, Troutman, NC 28166",-80.85152,35.6692536,Charter Schools,Southwest,Y,36.1,D,Not Met,43.3,
800358,Isenberg Elementary,Rowan,Salisbury,"2800 Jake Alexander Blvd N, Salisbury, NC 28147",-80.5037595,35.7011501,Rowan-Salisbury Schools,Southwest,Y,56.6,D,Exceeded,42.2,
600478,J H Gunn Elementary,Mecklenburg,Charlotte,"7400 Harrisburg Rd, Charlotte, NC 28215",-80.6854883,35.2159386,Charlotte-Mecklenburg Schools,Southwest,Y,48.5,D,Not Met,42.4,
600305,J M Alexander Middle,Mecklenburg,Huntersville,"12010 Hambright Rd, Huntersville, NC 28078",-80.8382067,35.3761224,Charlotte-Mecklenburg Schools,Southwest,N,52.4,D,Not Met,48.5,
250348,J T Barber Elementary,Craven,New Bern,"1700 Cobb Street, New Bern, NC 28560",-77.0638683,35.1194548,Craven County Schools,Southeast,Y,87.6,D,Met,27.7,
640334,J W Parker Middle,Nash,Rocky Mount,"1500 East Virginia Street, Rocky Mount, NC 27801",-77.773995,35.9516228,Nash-Rocky Mount Schools,North Central,Y,77.4,F,Not Met,22,
410415,Jackson Middle,Guilford,Greensboro,"2200 Ontario Street, Greensboro, NC 27403",-79.8275254,36.0479436,Guilford County Schools,Piedmont-Triad,Y,66.4,D,Met,36.4,
320338,James E Shepard Middle,Durham,Durham,"2401 Dakota Street, Durham, NC 27707",-78.8997755,35.9654408,Durham Public Schools,North Central,Y,80.8,D,Not Met,33,
230346,James Love Elementary,Cleveland,Shelby,"309 James Love Road, Shelby, NC 28152",-81.5673132,35.2652188,Cleveland County Schools,Southwest,Y,74.6,D,Met,45.5,
600428,James Martin Middle,Mecklenburg,Charlotte,"6301 University Pointe Blvd, Charlotte, NC 28262",-80.7626043,35.2977496,Charlotte-Mecklenburg Schools,Southwest,Y,42.5,F,Not Met,32.9,
780329,Janie C Hargrave Elem,Robeson,Lumberton,"100 Hargrave St, Lumberton, NC 28358",-78.9877348,34.6142796,Robeson County Schools,Sandhills,Y,88.5,D,Met,35.3,
110372,Johnston Elementary,Buncombe,Asheville,"230 Johnston Boulevard, Asheville, NC 28806",-82.6198369,35.5866295,Buncombe County Schools,Western,Y,56.3,F,Not Met,30.7,
862310,Jones Intermediate,Surry,Mount Airy,"2170 Riverside Drive, Mount Airy, NC 27030",-80.58758,36.527713,Mount Airy City Schools,Piedmont-Triad,Y,64.1,D,Not Met,49.9,
600432,Joseph W Grier Academy,Mecklenburg,Charlotte,"8330 Grier Rd, Charlotte, NC 28215",-80.7255165,35.2678122,Charlotte-Mecklenburg Schools,Southwest,Y,44.9,D,Not Met,50.4,
410373,Julius I Foust Elementary,Guilford,Greensboro,"2610 Floyd Street, Greensboro, NC 27406",-79.8092312,36.0372463,Guilford County Schools,Piedmont-Triad,Y,67.2,D,Met,38.4,
13D000,Kannapolis Charter Academy,Cabarrus,Kannapolis,"1911 Concord Lake Road, Kannapolis, NC 28083",-80.5991251,35.4595013,Charter Schools,Southwest,Y,50.1,D,Not Met,42.7,
132330,Kannapolis Middle,Cabarrus,Kannapolis,"1445 Oakwood Avenue, Kannapolis, NC 28081",-80.6387447,35.467353,Kannapolis City Schools,Southwest,N,39.7,D,Not Met,44.4,
340424,Kimberley Park Elementary,Forsyth,Winston Salem,"1700 Old Cherry Street, Winston Salem, NC 27105",-80.2538252,36.1161093,Forsyth County Schools,Piedmont-Triad,Y,79.3,F,Met,16.1,
540315,Kinston High,Lenoir,Kinston,"2601 N Queen St, Kinston, NC 28501",-77.575268,35.2956029,Lenoir County Public Schools,Southeast,Y,86,D,Not Met,27.1,82
60L000,KIPP Charlotte,Mecklenburg,Charlotte,"931 Wilann Dr, Charlotte, NC 28215",-80.7660367,35.2503843,Charter Schools,Southwest,Y,55.8,D,Not Met,31.7,
32S000,KIPP Durham College Preparatory,Durham,Durham,"1107 Holloway Street, Durham, NC 27701",-78.8811772,35.9948357,Charter Schools,North Central,Y,70.1,D,Exceeded,35.8,
42A000,KIPP Halifax College Prep,Halifax,Halifax,"9986 Hwy 903, Halifax, NC 27839",-77.6812959,36.3675464,Charter Schools,Northeast,Y,61.2,D,Met,44.4,
410439,Kirkman Park Elementary,Guilford,High Point,"1101 North Centennial Street, High Point, NC 27262",-80.003043,35.973671,Guilford County Schools,Piedmont-Triad,Y,74.5,D,Met,30.7,
800362,Knollwood Elementary,Rowan,Salisbury,"3075 Shue Rd, Salisbury, NC 28147",-80.57549,35.615963,Rowan-Salisbury Schools,Southwest,Y,37,D,Met,39.3,
800363,Knox Middle,Rowan,Salisbury,"1625 Park Rd W, Salisbury, NC 28144",-80.4774078,35.6861006,Rowan-Salisbury Schools,Southwest,Y,53.6,F,Not Met,18.2,
340428,Konnoak Elementary,Forsyth,Winston Salem,"3200 Renon Road, Winston Salem, NC 27127",-80.2473786,36.0513064,Forsyth County Schools,Piedmont-Triad,Y,58.7,D,Exceeded,41.6,
800346,Koontz Elementary,Rowan,Salisbury,"685 East Ritchie Rd, Salisbury, NC 28146",-80.4963121,35.6241264,Rowan-Salisbury Schools,Southwest,Y,71.2,F,Not Met,15.9,
780330,L Gilbert Carroll Middle,Robeson,Lumberton,"300 Bailey Rd, Lumberton, NC 28358",-79.0091165,34.6591822,Robeson County Schools,Sandhills,Y,81.6,D,Not Met,43.4,
920474,Lake Myra Elementary,Wake,Wendell,"1300 Elk Falls Rd, Wendell, NC 27591",-78.429716,35.7614329,Wake County Schools,North Central,Y,50.2,D,Not Met,51.1,
260407,Lake Rim Elementary,Cumberland,Fayetteville,"1455 Hoke Loop Road, Fayetteville, NC 28314",-79.0765981,35.0494197,Cumberland County Schools,Sandhills,Y,50,D,Not Met,45.8,
740368,Lakeforest Elementary,Pitt,Greenville,"3300 Briarcliff Drive, Greenville, NC 27834",-77.4209273,35.5921482,Pitt County Schools,Northeast,Y,74.4,D,Not Met,43.2,
830328,Laurel Hill Elementary,Scotland,Laurel Hill,"11340 Old Wire Road, Laurel Hill, NC 28351",-79.5203159,34.82265,Scotland County Schools,Sandhills,Y,77.9,D,Not Met,47.2,
790344,Leaksville-Spray Elementary,Rockingham,Eden,"415 Highland Dr, Eden, NC 27288",-79.7581248,36.4926704,Rockingham County Schools,Piedmont-Triad,Y,62.8,D,Not Met,48.7,
100316,Leland Middle,Brunswick,Leland,"927 Old Fayetteville Road NE, Leland, NC 28451",-78.033794,34.23541,Brunswick County Schools,Southeast,Y,69.4,D,Not Met,51.3,
260372,Lewis Chapel Middle,Cumberland,Fayetteville,"2150 Skibo Road, Fayetteville, NC 28314",-78.97641,35.0485426,Cumberland County Schools,Sandhills,Y,74.4,D,Not Met,36.1,
291332,Lexington Middle School,Davidson,Lexington,"100 W Hemstead Street, Lexington, NC 27292",-80.2456206,35.8335432,Lexington City Schools,Piedmont-Triad,Y,60.9,D,Exceeded,43.3,
292316,Liberty Drive Elementary,Davidson,Thomasville,"401 Liberty Drive, Thomasville, NC 27360",-80.064539,35.878658,Thomasville City Schools,Piedmont-Triad,Y,60.2,D,Not Met,29.8,
760332,Liberty Elementary,Randolph,Liberty,"206 N Fayetteville St, Liberty, NC 27298",-79.570385,35.855369,Randolph County Schools,Piedmont-Triad,Y,66.1,D,Met,39.4,
360438,Lingerfeldt Elementary,Gaston,Gastonia,"1601 Madison Street, Gastonia, NC 28052",-81.1923648,35.2407278,Gaston County Schools,Southwest,Y,72.8,D,Met,29.8,
780336,Littlefield Middle,Robeson,Lumberton,"9674 NC Hwy 41 N, Lumberton, NC 28358",-78.9170282,34.6453036,Robeson County Schools,Sandhills,Y,74.5,D,Not Met,46,
920480,Lockhart Elementary,Wake,Knightdale,"1320 N Smithfield Rd, Knightdale, NC 27545",-78.484564,35.8032619,Wake County Schools,North Central,Y,63.4,D,Not Met,45.3,
320346,Lowe's Grove Middle,Durham,Durham,"4418 S Alston Avenue, Durham, NC 27713",-78.8912966,35.9045436,Durham Public Schools,North Central,Y,80,D,Met,36.5,
260310,Loyd E Auman Elementary,Cumberland,Fayetteville,"6882 Raeford Road, Fayetteville, NC 28304",-79.0110444,35.0380906,Cumberland County Schools,Sandhills,Y,65.5,D,Met,40.7,
780341,Lumberton Junior High,Robeson,Lumberton,"82 Marion Rd, Lumberton, NC 28358",-79.0317511,34.6049535,Robeson County Schools,Sandhills,Y,83.4,F,Not Met,23.6,
260358,Luther Nick Jeralds Middle,Cumberland,Fayetteville,"2517 Ramsey Street, Fayetteville, NC 28301",-78.8788675,35.0928179,Cumberland County Schools,Sandhills,Y,82.9,D,Not Met,39,
710324,Malpass Corner Elementary,Pender,Burgaw,"4992 Malpass Corner Road, Burgaw, NC 28425",-78.0539806,34.5037157,Pender County Schools,Southeast,Y,90.7,D,Exceeded,41,
260402,Manchester Elementary,Cumberland,Spring Lake,"611 Spring Avenue, Spring Lake, NC 28390",-78.9669597,35.1706698,Cumberland County Schools,Sandhills,Y,73.2,D,Met,42.7,
980356,Margaret Hearne Elementary,Wilson,Wilson,"300 W Gold St, Wilson, NC 27893",-77.9089851,35.7322572,Wilson County Schools,North Central,Y,78.5,F,Not Met,26.8,
260386,Margaret Willis Elementary,Cumberland,Fayetteville,"1412 Belvedere Avenue, Fayetteville, NC 28305",-78.904391,35.071097,Cumberland County Schools,Sandhills,Y,81.5,D,Not Met,39.2,
600366,Marie G Davis,Mecklenburg,Charlotte,"3351 W Griffith St, Charlotte, NC 28203",-80.876607,35.2025539,Charlotte-Mecklenburg Schools,Southwest,Y,61.7,D,Not Met,37.7,
600448,Martin Luther King Jr Middle,Mecklenburg,Charlotte,"500 Bilmark Ave, Charlotte, NC 28213",-80.7784325,35.2633482,Charlotte-Mecklenburg Schools,Southwest,Y,56.2,D,Exceeded,39.8,
260396,Mary McArthur Elementary,Cumberland,Fayetteville,"3809 Village Drive, Fayetteville, NC 28304",-78.940757,35.0251178,Cumberland County Schools,Sandhills,Y,72.1,D,Not Met,41.9,
390331,Mary Potter Middle,Granville,Oxford,"200 Taylor St, Oxford, NC 27565",-78.5862227,36.3165557,Granville County Schools,North Central,Y,76,D,Not Met,42.3,
480306,Mattamuskeet Elementary,Hyde,Swan Quarter,"60 Juniper Bay Road, Swan Quarter, NC 27885",-76.217128,35.440926,Hyde County Schools,Northeast,Y,71,D,Met,43.8,
320352,Merrick-Moore Elementary,Durham,Durham,"2325 Cheek Road, Durham, NC 27704",-78.8522192,36.0055656,Durham Public Schools,North Central,Y,59.6,D,Met,34.7,
510343,Micro Elementary,Johnston,Micro,"301 E Main St, Micro, NC 27555",-78.2012374,35.5588812,Johnston County Schools,North Central,Y,69,D,Met,36,
640336,Middlesex Elementary,Nash,Middlesex,"13081 West Hanes Avenue, Middlesex, NC 27557",-78.212991,35.787049,Nash-Rocky Mount Schools,North Central,Y,39.7,D,Met,35.6,
600364,Military and Global Leadership Academy,Mecklenburg,Charlotte,"1411 Hawthorne Lane, Ste A, Charlotte, NC 28205",-80.8146806,35.2286724,Charlotte-Mecklenburg Schools,Southwest,Y,35.9,D,Met,33.3,
920496,Millbrook Elementary,Wake,Raleigh,"1520 E Millbrook Rd, Raleigh, NC 27609",-78.61055,35.848788,Wake County Schools,North Central,Y,75.5,D,Not Met,37.1,
340452,Mineral Springs Middle,Forsyth,Winston Salem,"4559 Ogburn Avenue, Winston Salem, NC 27105",-80.235449,36.157342,Forsyth County Schools,Piedmont-Triad,Y,67.9,D,Met,35.3,
900314,Monroe Middle,Union,Monroe,"601 E Sunset Drive, Monroe, NC 28112",-80.5398253,34.9736453,Union County Public Schools,Southwest,N,51.1,D,Met,48.2,
600459,Montclaire Elementary,Mecklenburg,Charlotte,"5801 Farmbrook Dr, Charlotte, NC 28210",-80.8672692,35.152272,Charlotte-Mecklenburg Schools,Southwest,Y,43.5,D,Met,34.8,
410469,Montlieu Academy of Technology,Guilford,High Point,"1105 Montlieu Avenue, High Point, NC 27262",-79.9852139,35.9766361,Guilford County Schools,Piedmont-Triad,Y,67.4,F,Not Met,33.6,
340453,Moore Magnet Elementary,Forsyth,Winston Salem,"451 Knollwood Street, Winston Salem, NC 27103",-80.2850058,36.0877009,Forsyth County Schools,Piedmont-Triad,Y,47.2,D,Not Met,49,
260401,Morganton Road Elementary,Cumberland,Fayetteville,"102 Bonanza Drive, Fayetteville, NC 28303",-78.9872365,35.0796853,Cumberland County Schools,Sandhills,Y,66.8,D,Not Met,44.5,
40324,Morven Elementary,Anson,Morven,"6715 Hwy 52 S, Morven, NC 28119",-80.00664,34.879199,Anson County Schools,Southwest,Y,76.3,D,Met,38.3,
79Z000,Moss Street Partnership School,Rockingham,Reidsville,"419 Moss St, Reidsville, NC 27320",-79.6794154,36.3655388,Lab Schools,Piedmont-Triad,Y,63.4,F,Not Met,14.6,
120354,Mountain View Elementary,Burke,Morganton,"805 Bouchelle St,Â Morganton, NCÂ 28655",-81.7015061,35.7538794,Burke County Schools,Northwest,Y,82.6,D,Not Met,44.4,
61T000,Movement Charter School,Mecklenburg,Charlotte,"2701-B Freedom Dr, Charlotte, NC 28208",-80.8854548,35.2364565,Charter Schools,Southwest,Y,76.8,D,Not Met,48.2,
410478,Murphey Traditional Academy,Guilford,Greensboro,"2306 Ontario Street, Greensboro, NC 27403",-79.8297537,36.0465966,Guilford County Schools,Piedmont-Triad,Y,70.5,D,Met,34.1,
490345,N B Mills Elementary,Iredell,Statesville,"1410 Pearl St, Statesville, NC 28677",-80.9112357,35.7881576,Iredell-Statesville Schools,Southwest,Y,87.9,F,Not Met,28.2,
170338,N L Dillard Middle,Caswell,Yanceyville,"255 Hatchett Road, Yanceyville, NC 27379",-79.3654755,36.4131177,Caswell County Schools,Piedmont-Triad,Y,66,D,Not Met,36.6,
640346,Nash Central High,Nash,Rocky Mount,"4279 Nash Central High Road, Rocky Mount, NC 27804",-77.8959201,35.9553937,Nash-Rocky Mount Schools,North Central,N,55.7,D,Not Met,31.2,77.3
640320,Nash Central Middle,Nash,Nashville,"1638 South First Street, Nashville, NC 27856",-77.9568216,35.9564748,Nash-Rocky Mount Schools,North Central,N,55.9,D,Not Met,44.6,
600471,Nations Ford Elementary,Mecklenburg,Charlotte,"7050 Nations Ford Rd, Charlotte, NC 28217",-80.9062559,35.1561534,Charlotte-Mecklenburg Schools,Southwest,Y,46.2,D,Not Met,43.9,
320355,Neal Middle,Durham,Durham,"201 Baptist Road, Durham, NC 27704",-78.78184,35.9779327,Durham Public Schools,North Central,Y,76.2,D,Met,35.9,
910340,"New Hope Elementary, Henderson",Vance,Henderson,"10199 NC 39 Hwy N, Henderson, NC 27537",-78.442096,36.4643118,Vance County Schools,North Central,Y,75.1,D,Met,47.3,
600474,Newell Elementary,Mecklenburg,Charlotte,"325 Rocky River Road, West, Charlotte, NC 28213",-80.7535508,35.2867519,Charlotte-Mecklenburg Schools,Southwest,Y,53.5,D,Met,45.2,
960390,North Drive Elementary,Wayne,Goldsboro,"1108 North Drive, Goldsboro, NC 27530",-77.9630693,35.387251,Wayne County Public Schools,Southeast,Y,92.1,D,,,
730334,"North Elementary, Roxboro",Person,Roxboro,"260 Henderson Rd, Roxboro, NC 27573",-78.9662297,36.4070011,Person County Schools,North Central,Y,83,D,Exceeded,36.8,
340460,North Forsyth High,Forsyth,Winston Salem,"5705 Shattalon Drive, Winston Salem, NC 27105",-80.2813366,36.174504,Forsyth County Schools,Piedmont-Triad,Y,44.7,D,Not Met,27.3,78.5
10364,North Graham Elementary,Alamance,Graham,"1025 Trollinger Road, Graham, NC 27253",-79.3777934,36.0763205,Alamance-Burlington Schools,Piedmont-Triad,Y,63.2,D,Met,42.3,
430368,North Harnett Primary,Harnett,Angier,"282 N Harnett School Rd, Angier, NC 27501",-78.779675,35.4779323,Harnett County Schools,North Central,Y,73.8,D,,,
340462,North Hills Elementary,Forsyth,Winston-Salem,"340 Alspaugh Drive, Winston-Salem, NC 27105",-80.2525004,36.149384,Forsyth County Schools,Piedmont-Triad,Y,79.7,D,Exceeded,32.9,
510344,North Johnston Middle,Johnston,Micro,"435 Oil Company Road, Micro, NC 27555",-78.2090722,35.5637019,Johnston County Schools,North Central,Y,61.1,F,Not Met,31.8,
182328,North Newton Elementary,Catawba,Newton,"221 West 26th St, Newton, NC 28658",-81.221793,35.688814,Newton Conover City Schools,Northwest,Y,73.6,D,Not Met,43.3,
800373,North Rowan Elementary,Rowan,Spencer,"600 Charles St, Spencer, NC 28159",-80.4283056,35.7025707,Rowan-Salisbury Schools,Southwest,Y,46.1,F,Met,24.4,
800376,North Rowan High,Rowan,Spencer,"300 North Whitehead Ave, Spencer, NC 28159",-80.4294357,35.6973332,Rowan-Salisbury Schools,Southwest,N,69.8,D,Not Met,20.6,83.8
800377,North Rowan Middle,Rowan,Spencer,"512 Charles St, Spencer, NC 28159",-80.4261323,35.7016359,Rowan-Salisbury Schools,Southwest,Y,53.2,F,Not Met,23.3,
660336,Northampton County High School,Northampton,Gaston,"152 Hurricane Drive, Gaston, NC 27832",-77.652447,36.5108559,Northampton County Schools,Northeast,Y,63.8,D,Not Met,7,71.8
540325,"Northeast Elementary, Kinston",Lenoir,Kinston,"1002 E Highland Ave, Kinston, NC 28501",-77.5621283,35.2813382,Lenoir County Public Schools,Southeast,Y,93.7,D,Met,31.5,
410487,Northeast Guilford Middle,Guilford,McLeansville,"6720 McLeansville Road, McLeansville, NC 27301",-79.6751128,36.1613338,Guilford County Schools,Piedmont-Triad,Y,55,D,Exceeded,41.1,
390334,Northern Granville Middle,Granville,Oxford,"3144 Webb School Rd, Oxford, NC 27565",-78.6052655,36.3435764,Granville County Schools,North Central,Y,76.8,F,Not Met,31.6,
730344,Northern Middle,Person,Roxboro,"1935 Carver Dr, Roxboro, NC 27574",-78.9780474,36.4282915,Person County Schools,North Central,N,71.4,D,Not Met,47.3,
910370,Northern Vance High,Vance,Henderson,"293 Warrenton Road, Henderson, NC 27537",-78.3742753,36.3506061,Vance County Schools,North Central,N,57.7,D,Not Met,23.6,84.8
930340,Northside K-8,Warren,Norlina,"164 Elementary Ave, Norlina, NC 27563",-78.1845782,36.4565504,Warren County Schools,North Central,Y,53.2,D,Not Met,44.2,
740375,"Northwest Elementary, Greenville",Pitt,Greenville,"1471 Holland Road, Greenville, NC 27834",-77.4779948,35.737998,Pitt County Schools,Northeast,Y,77.8,D,Met,35.3,
540326,"Northwest Elementary, Kinston",Lenoir,Kinston,"1701 Old Well Rd, Kinston, NC 28504",-77.6033103,35.2783438,Lenoir County Public Schools,Southeast,Y,82,D,Met,41.5,
340464,Northwest Middle,Forsyth,Winston Salem,"5501 Murray Road, Winston Salem, NC 27106",-80.3067049,36.19201,Forsyth County Schools,Piedmont-Triad,Y,45.9,D,Exceeded,41.9,
410496,Northwood Elementary,Guilford,High Point,"818 West Lexington Avenue, High Point, NC 27262",-80.036755,35.977693,Guilford County Schools,Piedmont-Triad,Y,59.5,D,Met,38.4,
320360,"Oak Grove Elementary, Durham",Durham,Durham,"3810 Wake Forest Road, Durham, NC 27703",-78.819459,35.979946,Durham Public Schools,North Central,Y,79.4,D,Not Met,43.4,
410505,Oak View Elementary,Guilford,High Point,"614 Oakview Road, High Point, NC 27265",-80.0160023,35.9999141,Guilford County Schools,Piedmont-Triad,Y,64,D,Not Met,37.2,
600485,Oakdale Elementary,Mecklenburg,Charlotte,"1825 Oakdale Rd, Charlotte, NC 28216",-80.89703,35.300444,Charlotte-Mecklenburg Schools,Southwest,Y,56.9,D,Met,31.8,
110384,Oakley Elementary,Buncombe,Asheville,"753 Fairview Road, Asheville, NC 28803",-82.512424,35.564096,Buncombe County Schools,Western,Y,48.2,D,Not Met,41.9,
250360,Oaks Road Elementary,Craven,New Bern,"2811 Oaks Road, New Bern, NC 28560",-77.0655386,35.1277177,Craven County Schools,Southeast,Y,80.6,D,Met,32.6,
340476,Old Town Elementary,Forsyth,Winston Salem,"3930 Reynolda Road, Winston Salem, NC 27106",-80.332389,36.164581,Forsyth County Schools,Piedmont-Triad,Y,61,F,Not Met,31.3,
780352,Orrum Middle,Robeson,Orrum,"1684 South Creek Road, Orrum, NC 28369",-79.0100263,34.4651631,Robeson County Schools,Sandhills,Y,83.3,F,Not Met,25.6,
410402,Otis L Hairston Sr Middle,Guilford,Greensboro,"3911 Naco Rd, Greensboro, NC 27401",-79.7384171,36.0814709,Guilford County Schools,Piedmont-Triad,Y,78.3,D,Met,29.4,
800315,Overton Elementary,Rowan,Salisbury,"1825 Park Rd W, Salisbury, NC 28144",-80.4741063,35.6895601,Rowan-Salisbury Schools,Southwest,Y,56.9,D,Not Met,37.3,
780356,Oxendine Elementary,Robeson,Maxton,"5599 Oxendine School Rd, Maxton, NC 28364",-79.2591675,34.8060072,Robeson County Schools,Sandhills,Y,85.9,D,Exceeded,42.4,
700320,P W Moore Elementary,Pasquotank,Elizabeth City,"606 Roanoke Ave, Elizabeth City, NC 27909",-76.2286296,36.2897577,Pasquotank County Schools,Northeast,Y,66.3,F,Not Met,30.1,
340486,Parkland High,Forsyth,Winston Salem,"1600 Brewer Road, Winston Salem, NC 27127",-80.2573,36.057116,Forsyth County Schools,Piedmont-Triad,Y,46.3,D,Met,29.5,73.7
780360,Parkton Elementary,Robeson,Parkton,"400 North Green Street, Parkton, NC 28371",-79.0068072,34.9038827,Robeson County Schools,Sandhills,Y,80.8,D,Not Met,33.3,
410511,Parkview Village Elementary,Guilford,High Point,"325 Gordon Street, High Point, NC 27260",-79.9830726,35.9693771,Guilford County Schools,Piedmont-Triad,Y,82.1,D,Met,34.5,
320362,"Parkwood Elementary, Durham",Durham,Durham,"5207 Revere Road, Durham, NC 27713",-78.905692,35.8914339,Durham Public Schools,North Central,Y,72.5,D,Not Met,36.4,
700319,Pasquotank County High,Pasquotank,Elizabeth City,"1064 Northside Road, Elizabeth City, NC 27909",-76.2735096,36.3654528,Pasquotank County Schools,Northeast,N,57.1,D,Not Met,30.3,80.7
700318,Pasquotank Elementary,Pasquotank,Elizabeth City,"1407 Peartree Rd, Elizabeth City, NC 27909",-76.2243629,36.2835366,Pasquotank County Schools,Northeast,Y,53,F,Met,25.5,
09A000,Paul R Brown Leadership Academy,Bladen,Elizabethtown,"1300 Martin L King Jr Dr, Elizabethtown, NC 28337",-78.6176359,34.6212429,Charter Schools,Sandhills,Y,72.3,F,Met,27.3,
93J000,PAVE Southeast Raleigh Charter,Wake,Raleigh,"3420 Idlewood Village Dr, Raleigh, NC 27610",-78.619384,35.736869,Charter Schools,North Central,Y,47.1,D,Met,42.6,
410517,Peeler Open Elementary,Guilford,Greensboro,"2200 Randall Street, Greensboro, NC 27401",-79.75761,36.051725,Guilford County Schools,Piedmont-Triad,Y,68,D,Met,36.8,
780364,Pembroke Elementary,Robeson,Pembroke,"505 South Jones Street, Pembroke, NC 28372",-79.1934718,34.6747625,Robeson County Schools,Sandhills,Y,83.4,D,Met,42.9,
780368,Pembroke Middle,Robeson,Pembroke,"8910 Deep Branch Road, Pembroke, NC 28372",-79.2114532,34.6746591,Robeson County Schools,Sandhills,Y,85.2,D,Not Met,33.8,
600498,"Performance Learning Center, Charlotte",Mecklenburg,Charlotte,"2300 W Sugar Creek Road, Charlotte, NC 28262",-80.7966819,35.2950261,Charlotte-Mecklenburg Schools,Southwest,Y,39.7,D,Not Met,25,89.7
780374,Peterson Elementary,Robeson,Red Springs,"102 Phillips Ave, Red Springs, NC 28377",-79.1896812,34.8115431,Robeson County Schools,Sandhills,Y,81,D,Not Met,38.7,
340490,Petree Elementary,Forsyth,Winston-Salem,"3815 Old Greensboro Road, Winston-Salem, NC 27101",-80.1912812,36.1133308,Forsyth County Schools,Piedmont-Triad,Y,80,F,Met,17.2,
330332,"Phillips Middle, Battleboro",Edgecombe,Battleboro,"4371 Battleboro-Leggett Road, Battleboro, NC 27809",-77.685968,36.001686,Edgecombe County Public School,North Central,Y,64.9,F,Not Met,19.8,
340492,Philo-Hill Magnet Academy,Forsyth,Winston Salem,"410 Haverhill Street, Winston Salem, NC 27127",-80.2481969,36.0543243,Forsyth County Schools,Piedmont-Triad,Y,72.4,F,Not Met,15.2,
940314,Pines Elementary,Washington,Plymouth,"3177 US Hwy 64E, Plymouth, NC 27962",-76.6921778,35.8735014,Washington County Schools,Northeast,Y,71.3,D,Not Met,37.8,
780376,"Piney Grove Elementary, Lumberton",Robeson,Lumberton,"1680 Piney Grove Road, Lumberton, NC 28358",-79.0375212,34.6854023,Robeson County Schools,Sandhills,Y,87.9,D,Not Met,39.2,
90352,Plain View Primary,Bladen,Tar Heel,"1963 Chicken Foot Road, Tar Heel, NC 28392",-78.8399958,34.7385359,Bladen County Schools,Sandhills,Y,77.9,D,Met,43.2,
10372,"Pleasant Grove Elementary, Burlington",Alamance,Burlington,"2847 Pleasant Grv Sch Road, Burlington, NC 27217",-79.3056019,36.217398,Alamance-Burlington Schools,Piedmont-Triad,Y,52,D,Not Met,46.9,
360480,Pleasant Ridge Elementary,Gaston,Gastonia,"1260 Floyd Lane, Gastonia, NC 28052",-81.2057571,35.2502441,Gaston County Schools,Southwest,Y,48.1,D,Not Met,50.7,
510410,Polenta Elementary,Johnston,Garner,"105 Josephine Road, Garner, NC 27529",-78.5125549,35.5677849,Johnston County Schools,North Central,N,35.3,D,Not Met,51.5,
920536,Powell Elementary,Wake,Raleigh,"1130 Marlborough Rd, Raleigh, NC 27610",-78.6035183,35.7951663,Wake County Schools,North Central,Y,49.7,D,Met,44.6,
330334,Princeville Elementary,Edgecombe,Tarboro,"710 Panola Street, Tarboro, NC 27886",-77.5328765,35.9017803,Edgecombe County Public School,North Central,Y,71.7,D,Met,31.9,
780390,R B Dean Elementary,Robeson,Maxton,"202 S Hooper St, Maxton, NC 28364",-79.3448173,34.7325148,Robeson County Schools,Sandhills,Y,85,D,Met,33.9,
650312,R Freeman Sch of Engineering,New Hanover,Wilmington,"2601 Princess Place Drive, Wilmington, NC 28405",-77.9134872,34.2451529,New Hanover County Schools,Southeast,Y,>95,F,Met,21.5,
410532,Rankin Elementary,Guilford,Greensboro,"1501 Spry Street, Greensboro, NC 27405",-79.763688,36.120172,Guilford County Schools,Piedmont-Triad,Y,71.4,D,Met,35.9,
600514,Ranson Middle,Mecklenburg,Charlotte,"5850 Statesville Rd, Charlotte, NC 28269",-80.8389821,35.3003216,Charlotte-Mecklenburg Schools,Southwest,Y,55.7,F,Not Met,27.9,
32Q000,Reaching All Minds Academy,Durham,Durham,"2703 Holloway St., Durham, NC 27703",-78.8515471,35.9891291,Charter Schools,North Central,Y,21.1,F,Met,29,
780393,Red Springs Middle,Robeson,Red Springs,"302 W Second Avenue, Red Springs, NC 28377",-79.1859109,34.8198996,Robeson County Schools,Sandhills,Y,77.8,D,Met,27.5,
410530,Reedy Fork Elementary,Guilford,Greensboro,"4571 Reedy Fork Parkway, Greensboro, NC 27405",-79.6963377,36.186193,Guilford County Schools,Piedmont-Triad,Y,72.3,D,Not Met,46.2,
600517,Reid Park Academy,Mecklenburg,Charlotte,"4108 W Tyvola Rd, Charlotte, NC 28208",-80.90523,35.204946,Charlotte-Mecklenburg Schools,Southwest,Y,78.1,D,Met,43.7,
260419,Reid Ross Classical Middle,Cumberland,Fayetteville,"3200 Ramsey Street, Fayetteville, NC 28301",-78.8759571,35.1016501,Cumberland County Schools,Sandhills,N,77.3,D,Not Met,49.2,
790374,Reidsville Middle,Rockingham,Reidsville,"1903 S Park Dr, Reidsville, NC 27320",-79.6804677,36.3284462,Rockingham County Schools,Piedmont-Triad,Y,54.6,D,Met,44.5,
600515,Renaissance West STEAM Academy,Mecklenburg,Charlotte,"3241 New Renaissance Way, Charlotte, NC 28208",-80.9209172,35.2076074,Charlotte-Mecklenburg Schools,Southwest,Y,76.1,F,Not Met,22.4,
780392,Rex-Rennert Elementary,Robeson,Shannon,"11780 Rennert Road, Shannon, NC 28386",-79.088569,34.8439445,Robeson County Schools,Sandhills,Y,81.3,D,Met,22.7,
670337,Richlands Primary,Onslow,Richlands,"7444 Richlands Highway, Richlands, NC 28574",-77.5441184,34.8870773,Onslow County Schools,Southeast,Y,50.5,D,Not Met,49,
920549,"River Bend Middle, Raleigh",Wake,Raleigh,"5601 Wallace Martin Way, Raleigh, NC 27616",-78.5314912,35.8619745,Wake County Schools,North Central,Y,66.3,D,Not Met,41.6,
600463,River Oaks Academy,Mecklenburg,Charlotte,"1015 Mt Holly-Huntersville Rd, Charlotte, NC 28214",-80.9785597,35.3084442,Charlotte-Mecklenburg Schools,Southwest,Y,39,D,Not Met,48.6,
580372,Riverside Middle,Martin,Williamston,"2920 US Hwy 17, Williamston, NC 27892",-77.067263,35.81482,Martin County Schools,Northeast,Y,54.3,D,Not Met,39,
460332,Riverview Elementary,Hertford,Murfreesboro,"236 US 158 Business, Murfreesboro, NC 27855",-77.07536,36.4390069,Hertford County Schools,Northeast,Y,66.3,D,Not Met,48.6,
630348,Robbins Elementary,Moore,Robbins,"268 Rushwood Rd, Robbins, NC 27325",-79.573284,35.419539,Moore County Schools,Sandhills,Y,83.6,D,Not Met,30.7,
540330,Rochelle Middle,Lenoir,Kinston,"301 N Rochelle Blvd, Kinston, NC 28501",-77.561315,35.2629181,Lenoir County Public Schools,Southeast,Y,91.6,F,Not Met,26.4,
640361,Rocky Mount High,Nash,Rocky Mount,"1400 Bethlehem Road, Rocky Mount, NC 27803",-77.8357419,35.939355,Nash-Rocky Mount Schools,North Central,N,46.2,D,Not Met,31.1,80.6
640335,Rocky Mount Middle,Nash,Rocky Mount,"841 Nash Street, Rocky Mount, NC 27804",-77.807681,35.9418234,Nash-Rocky Mount Schools,North Central,Y,63.9,F,Not Met,28.8,
64A000,Rocky Mount Preparatory,Nash,Rocky Mount,"3334 Bishop Road, Rocky Mount, NC 27804",-77.7794804,36.0160718,Charter Schools,North Central,Y,76.9,D,Met,33.5,83.3
130329,"Rocky River Elementary, Concord",Cabarrus,Concord,"5454 Rocky River Road, Concord, NC 28025",-80.5980388,35.3422869,Cabarrus County Schools,Southwest,Y,65.2,D,Met,44.4,
920547,Rogers Lane Elementary,Wake,Raleigh,"201 North Rogers Lane, Raleigh, NC 27610",-78.5480089,35.777433,Wake County Schools,North Central,Y,82.1,D,Not Met,34.4,
410462,Ronald E. McNair Elementary,Guilford,Browns Summit,"4603 Yanceyville Road, Browns Summit, NC 27214",-79.7735431,36.1605354,Guilford County Schools,Piedmont-Triad,Y,64.4,D,Not Met,41.8,
310384,Rose Hill-Magnolia Elementary,Duplin,Rose Hill,"1329 Brooks Quinn Road, Rose Hill, NC 28458",-78.024087,34.85104,Duplin County Schools,Southeast,Y,78.9,D,Exceeded,40,
780394,Rosenwald Elementary,Robeson,Fairmont,"301 Martin L King Dr, Fairmont, NC 28340",-79.1195718,34.5033361,Robeson County Schools,Sandhills,Y,91.9,D,Met,32.7,
780396,Rowland Middle,Robeson,Rowland,"408 W Chapel St, Rowland, NC 28383",-79.2965095,34.5405367,Robeson County Schools,Sandhills,Y,88.7,D,Exceeded,29.2,
130328,Royal Oaks Elementary,Cabarrus,Kannapolis,"608 Dakota Street, Kannapolis, NC 28083",-80.612919,35.4663693,Cabarrus County Schools,Southwest,Y,48.6,D,Met,36.2,
780400,Saint Pauls Elementary,Robeson,Saint Pauls,"222 Martin Luther King Drive, Saint Pauls, NC 28384",-78.9619671,34.8074799,Robeson County Schools,Sandhills,Y,78.4,D,Not Met,34,
780403,Saint Pauls Middle,Robeson,Saint Pauls,"526 W Shaw St, Saint Pauls, NC 28384",-78.9760605,34.8115372,Robeson County Schools,Sandhills,Y,78.8,D,Exceeded,39.2,
800396,Salisbury High,Rowan,Salisbury,"500 Lincolnton Rd, Salisbury, NC 28144",-80.4851398,35.6646335,Rowan-Salisbury Schools,Southwest,N,63.8,D,Not Met,29,77.8
821320,Sampson Middle,Sampson,Clinton,"1201 W Elizabeth St, Clinton, NC 28328",-78.333236,34.9736112,Clinton City Schools,Sandhills,Y,65.6,D,Not Met,49.7,
420316,Scotland Neck Elementary Leadership Acad,Halifax,Scotland Neck,"901 Junior High School Road, Scotland Neck, NC 27874",-77.4281162,36.1269172,Halifax County Schools,Northeast,Y,76.6,F,Not Met,29.8,
410538,"Sedgefield Elementary, Greensboro",Guilford,Greensboro,"2905 Groometown Road, Greensboro, NC 27407",-79.865345,36.028822,Guilford County Schools,Piedmont-Triad,Y,60.9,D,Not Met,38.6,
600520,Sedgefield Middle,Mecklenburg,Charlotte,"2700 Dorchester Pl, Charlotte, NC 28209",-80.8562773,35.1972991,Charlotte-Mecklenburg Schools,Southwest,Y,57.3,D,Met,27.3,
510388,Selma Elementary,Johnston,Selma,"311 W Richardson St, Selma, NC 27576",-78.2823172,35.5409764,Johnston County Schools,North Central,Y,67.2,D,Exceeded,37.9,
510390,Selma Middle School,Johnston,Selma,"1533 Hwy 301 N, Selma, NC 27576",-78.2748438,35.5503635,Johnston County Schools,North Central,Y,68.9,F,Not Met,23.6,
360490,Sherwood Elementary,Gaston,Gastonia,"1744 Dixon Road, Gastonia, NC 28054",-81.1546791,35.2493262,Gaston County Schools,Southwest,Y,76.1,D,Met,41.4,
260426,Sherwood Park Elementary,Cumberland,Fayetteville,"2115 Hope Mills Road, Fayetteville, NC 28304",-78.9623206,35.0179162,Cumberland County Schools,Sandhills,Y,74.1,D,Met,38.3,
340514,Smith Farm Elementary,Forsyth,Winston-Salem,"4250 Johnny Knoll Lane, Winston-Salem, NC 27107",-80.1408877,36.0800672,Forsyth County Schools,Piedmont-Triad,Y,40.6,D,Met,36,
510397,Smithfield Middle,Johnston,Smithfield,"1455 Buffalo Rd, Smithfield, NC 27577",-78.3350609,35.5288456,Johnston County Schools,North Central,Y,81.3,D,Not Met,41,
500337,Smokey Mountain Elementary,Jackson,Whittier,"884 US Hwy 441N, Whittier, NC 28789",-83.3240769,35.4292046,Jackson County Schools,Western,Y,36,D,Not Met,40.4,
400321,Snow Hill Primary,Greene,Snow Hill,"502 SE 2nd Street, Snow Hill, NC 28580",-77.6640815,35.4508459,Greene County Schools,Southeast,Y,71.8,D,,,
580344,South Creek High,Martin,Robersonville,"21077 NC Hwy 903, Robersonville, NC 27871",-77.243593,35.856241,Martin County Schools,Northeast,Y,52.5,D,Not Met,29.6,73.1
330340,South Edgecombe Middle,Edgecombe,Pinetops,"230 Pinetops-Crisp Road, Pinetops, NC 27864",-77.643968,35.778073,Edgecombe County Public School,North Central,N,46.6,D,Met,36.4,
730356,"South Elementary, Roxboro",Person,Roxboro,"1333 Hurdle Mills Rd, Roxboro, NC 27573",-78.9887612,36.375394,Person County Schools,North Central,Y,62.9,D,Met,37.6,
790386,South End Elementary,Rockingham,Reidsville,"1307 South Park Drive, Reidsville, NC 27320",-79.667871,36.343707,Rockingham County Schools,Piedmont-Triad,Y,55.1,D,Not Met,43.8,
920561,South Garner High,Wake,Garner,"8228 Hebron Church Rd, Garner, NC 27529",-78.5796774,35.6550224,Wake County Schools,North Central,N,58.2,D,Met,37.7,
10380,South Graham Elementary,Alamance,Graham,"320 Ivey Road, Graham, NC 27253",-79.3936579,36.0520937,Alamance-Burlington Schools,Piedmont-Triad,Y,46.4,D,Met,45.3,
740390,South Greenville Elementary,Pitt,Greenville,"811 Howell St, Greenville, NC 27834",-77.385629,35.598201,Pitt County Schools,Northeast,Y,90.8,F,Met,21.3,
430376,South Harnett Elementary,Harnett,Bunnlevel,"8335 NC 210 South, Bunnlevel, NC 28323",-78.8954255,35.2979077,Harnett County Schools,North Central,Y,65.4,D,Met,47.9,
291348,South Lexington School,Davidson,Lexington,"1000 Cotton Grove Road, Lexington, NC 27292",-80.2612207,35.7964983,Lexington City Schools,Piedmont-Triad,Y,68.3,D,,,
780402,South Robeson High,Robeson,Rowland,"3268 South Robeson Rd, Rowland, NC 28383",-79.2532334,34.5453638,Robeson County Schools,Sandhills,Y,83.2,D,Not Met,19.4,90.8
510404,South Smithfield Elementary,Johnston,Smithfield,"201 W Sanders St, Smithfield, NC 27577",-78.3582032,35.500592,Johnston County Schools,North Central,Y,66.1,D,Not Met,34.8,
260425,South View Middle,Cumberland,Hope Mills,"4100 Elk Road, Hope Mills, NC 28348",-78.9299734,34.9807669,Cumberland County Schools,Sandhills,Y,60.3,D,Not Met,40.4,
540338,Southeast Elementary,Lenoir,Kinston,"201 McDaniels Street, Kinston, NC 28501",-77.571454,35.257961,Lenoir County Public Schools,Southeast,Y,>95,D,Met,36.9,
420358,Southeast Halifax Collegiate Prep Academ,Halifax,Halifax,"16683 Hwy 125, Halifax, NC 27839",-77.5507677,36.2193662,Halifax County Schools,Northeast,Y,64.2,D,Met,11.2,74.7
800398,"Southeast Middle, Salisbury",Rowan,Salisbury,"1570 Peeler Rd, Salisbury, NC 28146",-80.508762,35.609832,Rowan-Salisbury Schools,Southwest,N,62.4,D,Not Met,39.6,
760357,Southeastern Randolph Middle,Randolph,Ramseur,"5302 Foushee Rd, Ramseur, NC 27316",-79.6349089,35.728567,Randolph County Schools,Piedmont-Triad,N,69.4,D,Not Met,40.1,
410313,Southern Guilford Middle,Guilford,Greensboro,"5747 Drake Rd, Greensboro, NC 27406",-79.8508875,35.9434977,Guilford County Schools,Piedmont-Triad,Y,52.5,D,Met,47.4,
630350,"Southern Middle, Aberdeen",Moore,Aberdeen,"717 Johnson Street, Aberdeen, NC 28315",-79.426409,35.154692,Moore County Schools,Sandhills,Y,64.8,D,Met,43.4,
960380,Southern Wayne High,Wayne,Dudley,"124 Walter Fulcher Rd, Dudley, NC 28333",-78.0457642,35.2536839,Wayne County Public Schools,Southeast,N,67.3,D,Not Met,32.1,76.7
295300,Southside Ashpole Elementary,Robeson,Rowland,"607 N Martin Luther King Jr Exd, Rowland, NC 28383",-79.2927578,34.5415293,Innovative School District,Sandhills,Y,78,F,Not Met,21.5,
330350,SouthWest Edgecombe High,Edgecombe,Pinetops,"5912 NC 43 North, Pinetops, NC 27864",-77.657896,35.8366548,Edgecombe County Public School,North Central,N,41.8,D,Not Met,33.4,75.3
340530,Speas Elementary,Forsyth,Winston Salem,"2000 W Polo Road, Winston Salem, NC 27106",-80.2962505,36.1304261,Forsyth County Schools,Piedmont-Triad,Y,50.3,D,Met,45.6,
830349,Spring Hill Middle,Scotland,Laurinburg,"22801 Airbase Road, Laurinburg, NC 28352",-79.3772655,34.8691076,Scotland County Schools,Sandhills,Y,76.5,D,Not Met,46.7,
640376,Spring Hope Elementary,Nash,Spring Hope,"401 McLean Street, Spring Hope, NC 27882",-78.1092821,35.9513231,Nash-Rocky Mount Schools,North Central,Y,47.4,F,Met,27.3,
260428,Spring Lake Middle,Cumberland,Spring Lake,"612 Spring Avenue, Spring Lake, NC 28390",-78.965325,35.168865,Cumberland County Schools,Sandhills,Y,72.7,D,Not Met,37.6,
600545,Starmount Acad of Excellence,Mecklenburg,Charlotte,"1600 Brookdale Ave, Charlotte, NC 28210",-80.870543,35.139693,Charlotte-Mecklenburg Schools,Southwest,Y,40.6,D,Not Met,41.7,
490354,Statesville High,Iredell,Statesville,"474 N Center St, Statesville, NC 28677",-80.8918139,35.7935193,Iredell-Statesville Schools,Southwest,N,62.5,D,Not Met,27.8,82.9
490352,Statesville Middle,Iredell,Statesville,"321 Clegg St, Statesville, NC 28677",-80.8716356,35.7870265,Iredell-Statesville Schools,Southwest,N,82.2,F,Met,23,
600546,Statesville Road Elementary,Mecklenburg,Charlotte,"5521 Milhaven Ln, Charlotte, NC 28269",-80.8466877,35.2961147,Charlotte-Mecklenburg Schools,Southwest,Y,60,D,Not Met,40,
600550,Sterling Elementary,Mecklenburg,Pineville,"9601 China Grove Church Rd, Pineville, NC 28134",-80.884907,35.107476,Charlotte-Mecklenburg Schools,Southwest,Y,49.7,D,Met,37.4,
330354,Stocks Elementary,Edgecombe,Tarboro,"400 Hope Lodge Street, Tarboro, NC 27886",-77.5518214,35.9110179,Edgecombe County Public School,North Central,Y,66.2,F,Not Met,27.9,
170344,"Stoney Creek Elementary, Reidsville",Caswell,Reidsville,"1803 Stoney Creek School Road, Reidsville, NC 27320",-79.423574,36.345013,Caswell County Schools,Piedmont-Triad,Y,48.2,D,Met,41.3,
390360,Stovall-Shaw Elementary,Granville,Stovall,"7696 Hwy 15 N, Stovall, NC 27582",-78.5763221,36.4386131,Granville County Schools,North Central,Y,65,D,Not Met,47.1,
49D000,Success Institute Charter,Iredell,Statesville,"1424-2 Rickert St, Statesville, NC 28677",-80.878632,35.766089,Charter Schools,Southwest,Y,60,D,Met,35,
410577,Sumner Elementary,Guilford,Greensboro,"1915 Harris Drive, Greensboro, NC 27406",-79.8308492,35.9850207,Guilford County Schools,Piedmont-Triad,Y,63.8,D,Not Met,44,
260440,Sunnyside Elementary,Cumberland,Fayetteville,"3876 Sunnyside School Road, Fayetteville, NC 28312",-78.796946,35.028197,Cumberland County Schools,Sandhills,Y,73.1,D,Met,37.2,
100338,Supply Elementary,Brunswick,Supply,"51 Benton Road SE, Supply, NC 28462",-78.258371,34.0251019,Brunswick County Schools,Southeast,Y,84.7,D,Not Met,44.8,
410325,Swann Middle School,Guilford,Greensboro,"811 Cypress Street, Greensboro, NC 27405",-79.780809,36.0841568,Guilford County Schools,Piedmont-Triad,Y,58.2,D,Not Met,44.2,
830364,Sycamore Lane Elementary,Scotland,Laurinburg,"2100 Sycamore Lane, Laurinburg, NC 28352",-79.4890148,34.7395274,Scotland County Schools,Sandhills,Y,79.7,D,Not Met,30.6,
10392,Sylvan Elementary,Alamance,Snow Camp,"7718 Sylvan Road, Snow Camp, NC 27349",-79.4365221,35.8799967,Alamance-Burlington Schools,Piedmont-Triad,Y,62.3,D,Met,43.8,
370324,T S Cooper Elementary,Gates,Sunbury,"237 NC 32 South, Sunbury, NC 27979",-76.6067607,36.4244573,Gates County Schools,Northeast,Y,51.8,D,Met,40.2,
240372,Tabor City Elementary,Columbus,Tabor City,"203 Stake Road, Tabor City, NC 28463",-78.8739183,34.1517631,Columbus County Schools,Sandhills,Y,75.3,D,Not Met,47.1,
240376,Tabor City Middle,Columbus,Tabor City,"701 W Sixth Street, Tabor City, NC 28463",-78.8862692,34.1487488,Columbus County Schools,Sandhills,Y,78.4,D,Met,34.1,
90365,Tar Heel Middle,Bladen,Tar Heel,"14888 Hwy 87 West, Tar Heel, NC 28392",-78.7943023,34.7366219,Bladen County Schools,Sandhills,Y,83.9,D,Not Met,42.8,
330358,Tarboro High,Edgecombe,Tarboro,"1400 Howard Avenue, Tarboro, NC 27886",-77.559107,35.9020577,Edgecombe County Public School,North Central,N,48.9,D,Met,28.7,77.6
260444,Teresa C Berrien Elementary,Cumberland,Fayetteville,"800 North Street, Fayetteville, NC 28301",-78.8745401,35.0653695,Cumberland County Schools,Sandhills,Y,90.2,F,Not Met,25.4,
26C000,The Capitol Encore Academy,Cumberland,Fayetteville,"126 Hay Street, Fayetteville, NC 28301",-78.8790444,35.0534229,Charter Schools,Sandhills,Y,59.1,D,Not Met,46.8,
41N000,The Experiential School of Greensboro,Guilford,Greensboro," 301 S Church St, Greensboro, NC 27401",-79.786686,36.0706149,Charter Schools,Piedmont-Triad,N,18.7,D,Not Met,50,
32P000,The Institute Development Young Leaders,Durham,Durham,"4300 S. Miami Blvd., Durham, NC 27703",-78.8511015,35.8997647,Charter Schools,North Central,Y,51.4,D,Met,34.7,
600553,Thomasboro Academy,Mecklenburg,Charlotte,"538 Bradford Dr, Charlotte, NC 28208",-80.8987366,35.2544538,Charlotte-Mecklenburg Schools,Southwest,Y,67.7,D,Exceeded,30.5,
292320,Thomasville Middle,Davidson,Thomasville,"400 Unity Street, Thomasville, NC 27360",-80.0787454,35.8994555,Thomasville City Schools,Piedmont-Triad,Y,56.7,D,Exceeded,37.3,
920570,Timber Drive Elementary,Wake,Garner,"1601 Timber Drive, Garner, NC 27529",-78.6355464,35.6900661,Wake County Schools,North Central,Y,39.3,D,Not Met,51.3,
980390,Toisnot Middle,Wilson,Wilson,"1301 Corbett Ave N, Wilson, NC 27893",-77.9107642,35.7444456,Wilson County Schools,North Central,Y,19.9,D,Not Met,44.1,
780410,Townsend Middle,Robeson,Maxton,"105 Carolina Street, Maxton, NC 28364",-79.3524002,34.7328579,Robeson County Schools,Sandhills,Y,82.9,F,Met,19,
490366,Troutman Middle,Iredell,Troutman,"305 Rumple St, Troutman, NC 28166",-80.8853386,35.6975947,Iredell-Statesville Schools,Southwest,N,47.1,D,Not Met,50.4,
600562,Tuckaseegee Elementary,Mecklenburg,Charlotte,"2028 Little Rock Rd, Charlotte, NC 28214",-80.9419409,35.2497076,Charlotte-Mecklenburg Schools,Southwest,Y,50.1,D,Not Met,44.4,
10394,Turrentine Middle,Alamance,Burlington,"1710 Edgewood Avenue, Burlington, NC 27215",-79.4623901,36.0907285,Alamance-Burlington Schools,Piedmont-Triad,Y,65,D,Not Met,41.5,
890308,Tyrrell Elementary,Tyrrell,Columbia,"486 Elementary School Road, Columbia, NC 27925",-76.241245,35.91362,Tyrrell County Schools,Northeast,Y,44.6,D,Met,42,
780412,Union Chapel Elementary,Robeson,Pembroke,"4271 Union Chapel Road, Pembroke, NC 28372",-79.134113,34.712807,Robeson County Schools,Sandhills,Y,81.5,D,Not Met,37.6,
600565,University Park Creative Arts,Mecklenburg,Charlotte,"2400 Hildebrand St, Charlotte, NC 28216",-80.859141,35.2609885,Charlotte-Mecklenburg Schools,Southwest,Y,63,D,Not Met,46.4,
61U000,UpROAR Leadership Academy,Mecklenburg,Charlotte,"5500 North Tryon St, Charlotte, NC 28213",-80.7736584,35.2611107,Charter Schools,Southwest,Y,28.6,F,Not Met,7.2,
760382,Uwharrie Ridge Six-Twelve,Randolph,Trinity,"1463 Pleasant Union Road, Trinity, NC 27370",-79.9911257,35.718544,Randolph County Schools,Piedmont-Triad,N,50,D,Not Met,44,
140388,Valmead Elementary,Caldwell,Lenoir,"111 Elizabeth Drive NW, Lenoir, NC 28645",-81.539501,35.936797,Caldwell County Schools,Northwest,Y,67.5,D,,,
600592,Vance High,Mecklenburg,Charlotte,"7600 IBM Dr, Charlotte, NC 28262",-80.7689268,35.3001651,Charlotte-Mecklenburg Schools,Southwest,Y,40.7,D,Not Met,34.6,76.5
250320,Vanceboro-Farm Life Elementary,Craven,Vanceboro,"2000 Farm Life Avenue, Vanceboro, NC 28586",-77.1465944,35.3070019,Craven County Schools,Southeast,Y,79.6,D,Not Met,45.6,
410583,Vandalia Elementary,Guilford,Greensboro,"407 East Vandalia Road, Greensboro, NC 27406",-79.7798575,36.0173521,Guilford County Schools,Piedmont-Triad,Y,67.8,D,Met,31.9,
61P000,"VERITAS Community School, CFA",Mecklenburg,Charlotte,"2600 Grimes Street, Charlotte, NC 28206",-80.821468,35.252515,Charter Schools,Southwest,Y,21.6,D,Met,40.9,
980357,Vick Elementary,Wilson,Wilson,"504 N Carroll Street, Wilson, NC 27893",-77.8963519,35.719989,Wilson County Schools,North Central,Y,84.4,D,Not Met,31.3,
740378,Vidant Health,Pitt,Greenville,"400 Spruce Street, Greenville, NC 27834",-77.3840456,35.6087744,Pitt County Schools,Northeast,N,65.4,F,,11.8,
600593,Villa Heights Elementary,Mecklenburg,Charlotte,"800 Everett Pl, Charlotte, NC 28205",-80.8127771,35.2366984,Charlotte-Mecklenburg Schools,Southwest,Y,64.7,D,Exceeded,43.8,
330344,W A Pattillo Middle,Edgecombe,Tarboro,"501 East Ave, Tarboro, NC 27886",-77.5238509,35.902929,Edgecombe County Public School,North Central,Y,65.3,D,Exceeded,32.4,
320388,W G Pearson Elementary,Durham,Durham,"3501 Fayettville Street, Durham, NC 27707",-78.9077836,35.9584263,Durham Public Schools,North Central,Y,59.9,D,Met,39.8,
780417,W H Knuckles,Robeson,Lumberton,"1520 Martin L King Dr, Lumberton, NC 28358",-79.022684,34.610642,Robeson County Schools,Sandhills,Y,>95,D,Met,36.1,
360408,W P Grier Middle School,Gaston,Gastonia,"1622 E Garrison Boulevard, Gastonia, NC 28054",-81.155406,35.254199,Gaston County Schools,Southwest,Y,55.5,D,Not Met,42.6,
40330,Wadesboro Elementary,Anson,Wadesboro,"321 Camden Road, Wadesboro, NC 28710",-80.0790723,34.9622196,Anson County Schools,Southwest,Y,71.9,F,Not Met,22,
40311,Wadesboro Primary,Anson,Wadesboro,"1542 Hwy 52 S, Wadesboro, NC 28170",-80.0577,34.941983,Anson County Schools,Southwest,Y,79.3,F,Exceeded,24.4,
830360,Wagram Elementary,Scotland,Wagram,"24081 Main Street, Wagram, NC 28396",-79.367874,34.884434,Scotland County Schools,Sandhills,Y,81,D,Not Met,43,
740400,Wahl Coates Elementary,Pitt,Greenville,"2200 E 5th St, Greenville, NC 27858",-77.348248,35.605798,Pitt County Schools,Northeast,Y,78.6,D,Met,42.6,
920597,Wakelon Elementary,Wake,Zebulon,"8921 Pippin Rd, Zebulon, NC 27597",-78.3364837,35.8544914,Wake County Schools,North Central,Y,72.3,D,Not Met,50.2,
410366,Waldo C Falkener Sr Elementary,Guilford,Greensboro,"3931 Naco Road, Greensboro, NC 27401",-79.7363892,36.0820795,Guilford County Schools,Piedmont-Triad,Y,79,D,Not Met,35.1,
260405,Walker Spivey Elementary,Cumberland,Fayetteville,"500 Fisher Street, Fayetteville, NC 28301",-78.8726764,35.0390699,Cumberland County Schools,Sandhills,Y,91.4,D,Met,43.2,
310388,Wallace Elementary,Duplin,Wallace,"4266 NC 11 S, Wallace, NC 28466",-77.9775739,34.7341814,Duplin County Schools,Southeast,Y,74.7,D,Not Met,39.4,
920599,Walnut Creek Elementary,Wake,Raleigh,"2600 Sunnybrook Rd, Raleigh, NC 27610",-78.5866441,35.7445879,Wake County Schools,North Central,Y,70.5,D,Not Met,36.7,
900370,Walter Bickett Elementary,Union,Monroe,"830 South ML King Blvd, Monroe, NC 28112",-80.582309,34.970966,Union County Public Schools,Southwest,Y,56,D,Exceeded,42.1,
600574,Walter G Byers School,Mecklenburg,Charlotte,"1415 Hamilton St, Charlotte, NC 28206",-80.8414549,35.2439448,Charlotte-Mecklenburg Schools,Southwest,Y,80.1,D,Exceeded,40.2,
340548,Ward Elementary,Forsyth,Winston-Salem,"3775 Fraternity Church Road, Winston-Salem, NC 27127",-80.3365552,36.0277227,Forsyth County Schools,Piedmont-Triad,Y,67.2,D,Met,44,
930352,Warren County High,Warren,Warrenton,"149 Campus Drive, Warrenton, NC 27589",-78.1676608,36.4326057,Warren County Schools,North Central,N,46.6,D,Not Met,18.1,78.7
930354,Warren County Middle,Warren,Warrenton,"118 Campus Drive, Warrenton, NC 27589",-78.1679856,36.4331685,Warren County Schools,North Central,Y,63.2,D,Not Met,35.6,
310336,Warsaw Elementary,Duplin,Warsaw,"158 Lanefield Road, Warsaw, NC 28398",-78.0759379,34.997008,Duplin County Schools,Southeast,Y,85,D,Met,35.5,
940328,Washington County Union,Washington,Roper,"37 E Mill Pond Rd, Roper, NC 27970",-76.6100643,35.8716266,Washington County Schools,Northeast,Y,63.5,D,Exceeded,38.1,
410586,"Washington Elementary, Greensboro",Guilford,Greensboro,"1110 East Washington Street, Greensboro, NC 27401",-79.773987,36.068205,Guilford County Schools,Piedmont-Triad,Y,73.8,D,Exceeded,30,
430380,Wayne Avenue Elem,Harnett,Dunn,"910 W Harnett St, Dunn, NC 28334",-78.6177517,35.315864,Harnett County Schools,North Central,Y,71.2,F,Not Met,29.4,
410592,Welborn Middle,Guilford,High Point,"1710 McGuinn Drive, High Point, NC 27265",-79.9906734,35.9823423,Guilford County Schools,Piedmont-Triad,Y,65.3,F,Not Met,31.9,
422314,Weldon Elementary Global Academy,Halifax,Weldon,"805 Washington Ave, Weldon, NC 27890",-77.6005263,36.4210276,Weldon City Schools,Northeast,Y,71.3,F,Not Met,25.2,
422318,Weldon Middle,Halifax,Halifax,"4489 Highway 301, Halifax, NC 27839",-77.5894446,36.3683802,Weldon City Schools,Northeast,Y,70.9,D,Not Met,34.9,
422315,Weldon STEM High School Career Academies,Halifax,Weldon,"415 County Road, Weldon, NC 27890",-77.6108078,36.4131869,Weldon City Schools,Northeast,Y,63.7,D,Not Met,12.4,68.9
920601,Wendell Middle,Wake,Wendell,"3409 NC Highway 97, Wendell, NC 27591",-78.3943197,35.8042512,Wake County Schools,North Central,N,60.2,D,Not Met,44.2,
80356,West Bertie Elementary,Bertie,Kelford,"3734 Governors Road, Kelford, NC 27847",-77.2149439,36.1578521,Bertie County Schools,Northeast,Y,68.9,D,Met,42.9,
600576,West Charlotte High,Mecklenburg,Charlotte,"2219 Senior Dr, Charlotte, NC 28216",-80.8597686,35.2660082,Charlotte-Mecklenburg Schools,Southwest,Y,56,D,Not Met,26,68.3
510326,West Clayton Elementary,Johnston,Clayton,"1012 S Lombard St, Clayton, NC 27520",-78.4698663,35.6434764,Johnston County Schools,North Central,N,43.2,D,Not Met,48.4,
250376,West Craven Middle,Craven,New Bern,"515 NW Craven Mid School Road, New Bern, NC 28562",-77.1508531,35.217075,Craven County Schools,Southeast,N,72.9,D,Not Met,38.7,
400332,West Greene Elementary,Greene,Snow Hill,"303 Kingold Boulevard, Snow Hill, NC 28580",-77.6864488,35.4539507,Greene County Schools,Southeast,Y,76.1,D,Not Met,43.3,
530356,West Lee Middle,Lee,Sanford,"3301 Wicker St, Sanford, NC 27330",-79.2150667,35.468466,Lee County Schools,North Central,N,68.5,D,Not Met,48.5,
140392,West Lenoir Elementary,Caldwell,Lenoir,"125 Maple Drive NW, Lenoir, NC 28645",-81.5527916,35.9094654,Caldwell County Schools,Northwest,Y,68.3,D,Met,32.7,
620339,West Middle,Montgomery,Mount Gilead,"129 NC Hwy 109S, Mount Gilead, NC 27306",-79.943774,35.318228,Montgomery County Schools,Sandhills,N,59,D,Not Met,45.9,
390364,West Oxford Elementary,Granville,Oxford,"412 Ivey Day Rd, Oxford, NC 27565",-78.611949,36.322188,Granville County Schools,North Central,Y,86.3,D,Met,32.7,
710348,West Pender Middle,Pender,Burgaw,"10750 NC Hwy 53 West, Burgaw, NC 28425",-78.104665,34.5274612,Pender County Schools,Southeast,Y,92.2,D,Met,42.2,
800410,West Rowan Middle,Rowan,Salisbury,"5925 Statesville Blvd, Salisbury, NC 28147",-80.585417,35.7140916,Rowan-Salisbury Schools,Southwest,N,58.7,D,Not Met,43.5,
510396,West Smithfield Elementary,Johnston,Smithfield,"2665 Galilee Road, Smithfield, NC 27577",-78.406682,35.501511,Johnston County Schools,North Central,Y,70.7,D,Met,27.7,
260452,Westarea Elementary,Cumberland,Fayetteville,"941 Country Club Drive, Fayetteville, NC 28301",-78.912423,35.0979749,Cumberland County Schools,Sandhills,Y,80.8,D,Exceeded,40.6,
600577,Westerly Hills Academy,Mecklenburg,Charlotte,"4420 Denver Ave, Charlotte, NC 28208",-80.9110091,35.2322231,Charlotte-Mecklenburg Schools,Southwest,Y,72.9,D,Met,41.8,
410397,Western Guilford Middle,Guilford,Greensboro,"401 College Road, Greensboro, NC 27410",-79.8946519,36.083142,Guilford County Schools,Piedmont-Triad,Y,76.4,D,Not Met,47.5,
920616,Wilburn Elementary,Wake,Raleigh,"3707 Marsh Creek Rd, Raleigh, NC 27604",-78.5755631,35.8194657,Wake County Schools,North Central,Y,74.9,D,Met,50.5,
920618,Wildwood Forest Elementary,Wake,Raleigh,"8401 Wildwood Forest Drive, Raleigh, NC 27616",-78.551125,35.893523,Wake County Schools,North Central,Y,63.5,D,Not Met,42.5,
410598,Wiley Accel/Enrichment,Guilford,Greensboro,"600 West Terrell Street, Greensboro, NC 27406",-79.8024983,36.0486215,Guilford County Schools,Piedmont-Triad,Y,85.9,F,Not Met,22,
260404,William H Owen Elementary,Cumberland,Fayetteville,"4533 Raeford Road, Fayetteville, NC 28304",-78.9541728,35.0420546,Cumberland County Schools,Sandhills,Y,72,D,Not Met,46.7,
420376,William R Davie Middle S.T.E.M. Academy,Halifax,Roanoke Rapids,"4391 Hwy 158, Roanoke Rapids, NC 27870",-77.7446678,36.4449469,Halifax County Schools,Northeast,Y,61.5,D,Met,39.2,
06B000,Williams Academy,Avery,Crossnore,"129 Allen Circle, Crossnore, NC 28616",-81.928458,36.024783,Charter Schools,Northwest,Y,74.1,D,Met,43.2,
580308,Williamston Primary,Martin,Williamston,"400 West Blvd, Williamston, NC 27892",-77.0733337,35.8426174,Martin County Schools,Northeast,Y,64.5,D,,,
640396,Williford Elementary,Nash,Rocky Mount,"801 Williford Street, Rocky Mount, NC 27803",-77.8185017,35.9281988,Nash-Rocky Mount Schools,North Central,Y,77,F,,,
660360,Willis Hare Elementary,Northampton,Pendleton,"479 Willis Hare Road, Pendleton, NC 27862",-77.188922,36.478311,Northampton County Schools,Northeast,Y,68.3,D,Met,41.6,
650392,Williston Middle,New Hanover,Wilmington,"401 S 10th St, Wilmington, NC 28401",-77.934147,34.2311,New Hanover County Schools,Southeast,Y,80,D,Not Met,36.1,
65B000,Wilmington Preparatory Academy,New Hanover,Wilmington,"134 Cinema Drive, Wilmington, NC 28403",-77.8919697,34.23873,Charter Schools,Southeast,Y,79.3,D,Exceeded,42.3,
600583,Wilson STEM Academy,Mecklenburg,Charlotte,"7020 Tuckaseegee Rd, Charlotte, NC 28214",-80.945733,35.249473,Charlotte-Mecklenburg Schools,Southwest,Y,64.7,F,Not Met,24.3,
510408,Wilson's Mills Elementary,Johnston,Wilson's Mills,"4654 Wilson's Mills Rd, Wilson's Mills, NC 27593",-78.358707,35.58402,Johnston County Schools,North Central,Y,75.6,D,Met,41.9,
130340,Winecoff Elementary,Cabarrus,Concord,"375 Winecoff Sch Road, Concord, NC 28027",-80.6179398,35.4464301,Cabarrus County Schools,Southwest,Y,43.6,D,Met,45.2,
900388,Wingate Elementary,Union,Wingate,"301 Bivens Street, Wingate, NC 28174",-80.4554937,34.9846396,Union County Public Schools,Southwest,Y,53.2,D,Not Met,50.2,
640400,Winstead Avenue Elementary,Nash,Rocky Mount,"991 South Winstead Avenue, Rocky Mount, NC 27804",-77.8468229,35.9511371,Nash-Rocky Mount Schools,North Central,Y,54.7,D,,,
980400,Winstead Elementary,Wilson,Wilson,"1713 Downing St SW, Wilson, NC 27893",-77.930761,35.7126188,Wilson County Schools,North Central,Y,68.7,D,Exceeded,39.1,
340568,Winston-Salem Preparatory Acad,Forsyth,Winston-Salem,"1215 North Cameron Avenue, Winston-Salem, NC 27101",-80.221514,36.11106,Forsyth County Schools,Piedmont-Triad,Y,70.9,F,Not Met,15.9,>95
600589,Winterfield Elementary,Mecklenburg,Charlotte,"3100 Winterfield Pl, Charlotte, NC 28205",-80.766898,35.208093,Charlotte-Mecklenburg Schools,Southwest,Y,63.1,D,Met,36.2,
360520,Woodhill Elementary,Gaston,Gastonia,"1027 Woodhill Drive, Gastonia, NC 28052",-81.180546,35.278935,Gaston County Schools,Southwest,Y,70.2,D,Met,34.3,
132336,Woodrow Wilson Elementary,Cabarrus,Kannapolis,"800 N Walnut Street, Kannapolis, NC 28081",-80.6191188,35.508243,Kannapolis City Schools,Southwest,Y,43.5,D,Met,45.2,
650404,Wrightsboro Elementary,New Hanover,Wilmington,"2716 Castle Hayne Rd, Wilmington, NC 28401",-77.9202316,34.2924175,New Hanover County Schools,Southeast,Y,79.9,D,Met,39.4,
320400,Y E Smith Elementary,Durham,Durham,"2410 E Main Street, Durham, NC 27703",-78.8724657,35.9856279,Durham Public Schools,North Central,Y,70.6,D,Exceeded,32.5,
360526,York Chester Middle,Gaston,Gastonia,"601 S Clay Street, Gastonia, NC 28052",-81.192534,35.255431,Gaston County Schools,Southwest,Y,60.9,D,Met,45.5,
67B000,Z.E.C.A. School of Arts and Technology,Onslow,Jacksonville,"1249 Hargett Street, Jacksonville, NC 28540",-77.4125728,34.752111,Charter Schools,Southeast,Y,77,F,Met,25.9,
920632,Zebulon Elementary,Wake,Zebulon,"700 Proctor St, Zebulon, NC 27597",-78.3198379,35.8394223,Wake County Schools,North Central,Y,65.4,D,Not Met,38.2,
